{"type":"FeatureCollection","crs":{"type":"name","properties":{"name":"EPSG:4326"}},"features":[{"type":"Feature","id":1294,"geometry":{"type":"LineString","coordinates":[[-73.3185971821335,41.1170689620837],[-73.3184954487772,41.1172281621178],[-73.3183430487393,41.1174092288246],[-73.3182268487049,41.1174586288382],[-73.318205182032,41.1174696288412],[-73.318059848653,41.1174861621827],[-73.317849448589,41.1175409622005],[-73.3176170485306,41.1178100289271],[-73.3173847818021,41.1180186289753],[-73.3172832484461,41.118183362344],[-73.3172428484418,41.1183275623731],[-73.3172741817944,41.1184815624017],[-73.3171632484375,41.1186802291107],[-73.3170581817432,41.1187817624672],[-73.3169928483907,41.1188092291414],[-73.3168403816804,41.1188970291636],[-73.3167502483213,41.1189478291764],[-73.3166749816416,41.1191337625483],[-73.3164849815913,41.1193111625891],[-73.3163270482258,41.1196159626534],[-73.3160634481559,41.1198578293757],[-73.3159836481306,41.119863362713],[-73.3157005813688,41.119791962709],[-73.3155190479733,41.1197260293691],[-73.3154174479415,41.1197370293748],[-73.3153084479095,41.119786429388],[-73.3152649812316,41.1198302293978],[-73.315257647903,41.1199511627548],[-73.3154464479746,41.12013222945],[-73.3154464479795,41.1202145627991],[-73.3152069812444,41.1203518295006],[-73.3151488478974,41.1204342295186],[-73.3152431812708,41.1205989628804],[-73.3152504479444,41.1206758295616],[-73.3152214479368,41.120703229568],[-73.3148003811523,41.1209887629709],[-73.3147277811353,41.1210930296601],[-73.3146333811117,41.1212028296846],[-73.3145171810813,41.1213181630442],[-73.3144300477283,41.1214553630737],[-73.3143936477194,41.1214992297501],[-73.3143283810377,41.1215980297714],[-73.31429938103,41.1216255631112],[-73.3141831809965,41.1216859631267],[-73.3140888476325,41.1216804297956],[-73.3139944476033,41.121696829802],[-73.3139073809119,41.1217518298156],[-73.3138129808844,41.1217957631607],[-73.3136096474862,41.1218012298353],[-73.3135515808029,41.1218341631771],[-73.3133120474014,41.1219768298795],[-73.3131813806948,41.1220097632236],[-73.3131885807073,41.1221799632564],[-73.3131885807093,41.1222129632627],[-73.3132610474194,41.1225478299915],[-73.3134571808423,41.1229924300705],[-73.3135950475657,41.1232011634394],[-73.3137983809736,41.123354963462],[-73.3157343816264,41.1238867634981],[-73.315932848358,41.1239093634956],[-73.3161433817757,41.1241893635422],[-73.3158021816872,41.1245352302875],[-73.3155988483024,41.1247658303389],[-73.3154608482682,41.1249305637088],[-73.3153882482494,41.1250073637262],[-73.3152906482241,41.125105230415],[-73.3152543815502,41.12517663043],[-73.3151164481815,41.1253248304634],[-73.3149566481395,41.1254785638319],[-73.3148287814339,41.1255112305093],[-73.3148259814385,41.1256048305274],[-73.3146082480427,41.1257256305583],[-73.314481648014,41.1259216306005],[-73.3129382476142,41.1275019642918],[-73.3130327810019,41.127899631032],[-73.3128656476249,41.1280643644029],[-73.3126987809113,41.1281742310965],[-73.3126333808946,41.1282455644459],[-73.3125607808783,41.1283608311374],[-73.3125244475438,41.1285364311724],[-73.312582447578,41.1287945645536],[-73.312589780928,41.1290305645989],[-73.3126841809873,41.1295136313555],[-73.3126769810264,41.1301999648216],[-73.3128149810971,41.1306392315681],[-73.3129600478245,41.1308752316087],[-73.3131343812269,41.1310947649783],[-73.3133739813154,41.1312870316739],[-73.313570048056,41.131473631703],[-73.3136862481066,41.1316932317414],[-73.3138315814964,41.1318579651017],[-73.3139549815401,41.1319237651101],[-73.3141944482871,41.1319842317802],[-73.3143106483276,41.1320390317866],[-73.3144703817148,41.1320830317897],[-73.3148262485061,41.1322586318114],[-73.3150948486046,41.1324618318414],[-73.3152837820178,41.1327802318962],[-73.3153635820601,41.1330601652809],[-73.315363648755,41.1335268320375],[-73.3152039820805,41.1342460321818],[-73.3151167820644,41.1344437655562],[-73.315044182052,41.1346248322603],[-73.3147682486626,41.1351629657071],[-73.3142236485288,41.1358381658559],[-73.3141873818577,41.1359589658806],[-73.3142454485521,41.1361126325749],[-73.3144705819998,41.1368098327016],[-73.314499648699,41.1371941661082],[-73.3144269820789,41.138352566334]]},"properties":{"OBJECTID":1294,"ASSESSMENT_UNIT_ID":"CT7000-13_01","ASSESSMENT_UNIT_NAME":"Greens Farms Brook (Westport)-01","LOCATION_DESCRIPTION":"Mouth at SA water parallel along Burying Hill Road (near Burying Hill Beach), DS Beachside Avenue crossing, US to HW (US under I95 crossing) near Regent Park along west side of Route 1, Westport.","USE_CLASS_NAME":"INLAND SURFACE WATERS CLASS A","WATER_TYPE_NAME":"RIVER","WATER_SIZE":1.87,"UNITS":"Miles","AQUATIC_LIFE_ATTAINMENT_2024":"Not Assessed","RECREATION_ATTAINMENT_2024":"Not Supporting","FISH_CONSUMPTION_ATTAINMENT_202":"Insufficient Information","DRINKINGWATER_ATTAINMENT_2024":"NOT EVALUATED","CYCLE":2024,"Impaired":"Yes"}}]}