{"type":"FeatureCollection","crs":{"type":"name","properties":{"name":"EPSG:4326"}},"features":[{"type":"Feature","id":985,"geometry":{"type":"LineString","coordinates":[[-73.340254256078,41.1226278290766],[-73.3411617897018,41.1226220290442],[-73.341292389746,41.1226605623806],[-73.3413433897676,41.1227483623958],[-73.3414305898211,41.1231711624744],[-73.3414741898476,41.1233797625132],[-73.3415977899006,41.1235992292179],[-73.3428391902933,41.1235111624913],[-73.343594257198,41.1234450291192],[-73.3458956579251,41.1232688290058],[-73.3475944584609,41.1231256289197],[-73.3481316586313,41.1230925622281],[-73.3483930587154,41.1230980288868],[-73.3489448588896,41.1230538288591],[-73.3490247922509,41.1230923621973],[-73.3492064590008,41.1235095622715],[-73.3492790590288,41.1235863622839],[-73.3495042591051,41.1236521622887],[-73.3495767924643,41.1236960289614],[-73.3495845925258,41.124673362483],[-73.3495700592011,41.1248928291925],[-73.3495759925384,41.1249298291994],[-73.3495122591893,41.1250081625502],[-73.3494842591846,41.1250767625642],[-73.3494302591824,41.1253280292813],[-73.3495409925527,41.1253525626157],[-73.3499445926672,41.1251047625539],[-73.3506780595898,41.1254503625951],[-73.3510410597126,41.1255599626039],[-73.3511064597341,41.1255654292692],[-73.3511718597657,41.1257411626343],[-73.3513899931894,41.1260814293591],[-73.3515497932526,41.1262790293917],[-73.3518404600393,41.1267235628008],[-73.3519494600808,41.1268334294849],[-73.3518843934162,41.1272122295602],[-73.3517174600386,41.1273659629289],[-73.351623060011,41.1274099629406],[-73.3512746599112,41.1276076296575],[-73.3507012597493,41.1279702297472],[-73.3500190595581,41.128426163192],[-73.3496705927902,41.128601963238],[-73.3494746594021,41.1287337632702],[-73.3491625926556,41.1290687633456],[-73.3487779925511,41.1293817634193],[-73.3484658591319,41.1296125634746],[-73.3483207924287,41.1297827635123],[-73.3481828590632,41.129980363555],[-73.3481247923796,41.1300078302293],[-73.3480158590136,41.1300463635737],[-73.3478780589735,41.1301121635911],[-73.3474933922086,41.130529563685],[-73.3473336588291,41.1306119637064],[-73.3470940587633,41.1307932304164],[-73.3465933919536,41.1310843638231],[-73.3461576584965,41.1313480305556],[-73.3457441917238,41.131787363988],[-73.3455118583351,41.1321058307241],[-73.3454829916676,41.1322430307515],[-73.3455120583576,41.1324790307961],[-73.3457446584601,41.1329401642103],[-73.3458464585083,41.1331981642567],[-73.3458465918517,41.1333629642883],[-73.3457377918401,41.1337472310329],[-73.3456435918258,41.134010831087],[-73.3456002585144,41.1346091645373],[-73.3454696584859,41.1348288312508],[-73.3453607917926,41.1349661646145],[-73.3451575917375,41.1351308313197],[-73.3449034583383,41.1353889647117],[-73.3448237916563,41.1355592314139],[-73.3446932583059,41.1359709648313],[-73.3444828582596,41.136322431573],[-73.3444466582694,41.136673831642],[-73.3444831916389,41.1370800317192],[-73.3447522584356,41.1378046318495],[-73.3448177918064,41.1380790319003],[-73.3447669917964,41.1381834319221],[-73.3450436586536,41.139868765571],[-73.3450583919942,41.1399126322454],[-73.3450583920037,41.1400719656096],[-73.3450584586914,41.1404178323431],[-73.3451892587502,41.1406977657258],[-73.3454219921781,41.1410270324479],[-73.3457125922878,41.1413014324911],[-73.3457634589794,41.14144416585],[-73.3457417923168,41.1416253658857],[-73.3455675922762,41.1418779659404],[-73.3455459922815,41.1420811659803],[-73.3455023922749,41.1422019660051],[-73.3454587922624,41.1422294326787],[-73.3453426588989,41.142344632705],[-73.3452847922378,41.1427454327841],[-73.3451831922167,41.142932166157],[-73.3450887921892,41.1429816328364],[-73.3449508588123,41.1429926328434],[-73.3445949920276,41.1429268328428],[-73.3442607919068,41.1427018328111],[-73.3435344583285,41.1424989661303],[-73.3433164582448,41.1422739660945],[-73.3430983914905,41.1419774327116],[-73.3430038581126,41.1417413660026]]},"properties":{"OBJECTID":985,"ASSESSMENT_UNIT_ID":"CT7000-18_01","ASSESSMENT_UNIT_NAME":"Unnamed tributary Sherwood Millpond LIS (Westport)-01","LOCATION_DESCRIPTION":"Mouth Sherwood Millpond (LIS) near Grove Point and along I95 and RR crossings, US to HW US Route 1 and Crescent Road crossings, Westport.","USE_CLASS_NAME":"INLAND SURFACE WATERS CLASS A","WATER_TYPE_NAME":"RIVER","WATER_SIZE":2.33,"UNITS":"Miles","AQUATIC_LIFE_ATTAINMENT_2024":"Not Assessed","RECREATION_ATTAINMENT_2024":"Not Supporting","FISH_CONSUMPTION_ATTAINMENT_202":"Insufficient Information","DRINKINGWATER_ATTAINMENT_2024":"NOT EVALUATED","CYCLE":2024,"Impaired":"Yes"}}]}