{"type":"FeatureCollection","crs":{"type":"name","properties":{"name":"EPSG:4326"}},"features":[{"type":"Feature","id":1303,"geometry":{"type":"LineString","coordinates":[[-73.3677020654412,41.1319710299323],[-73.3680433988862,41.1320093632612],[-73.3685519990751,41.1324372299929],[-73.3685956657655,41.1325965633554],[-73.3686975991457,41.1328325633974],[-73.3686686658121,41.132980763427],[-73.36830586572,41.1333817635169],[-73.3682478657046,41.1334366301962],[-73.3681236656723,41.1335613635579],[-73.3680305990032,41.1340132303149],[-73.3680162656855,41.1343481637133],[-73.3680818657194,41.1345621637523],[-73.3681327990737,41.1346390304321],[-73.3688882660065,41.1350339638156],[-73.3692587994742,41.1352917638525],[-73.3692951994918,41.1353905638703],[-73.3692590661621,41.1356431639202],[-73.3690633994559,41.1360275640011],[-73.369041666127,41.1362142307046],[-73.3690563994697,41.1362910307188],[-73.3692088661918,41.1364008307347],[-73.3694122662593,41.1364391640684],[-73.3697680663767,41.1364938307334],[-73.370341999904,41.1366582307452],[-73.3708068667299,41.1368282307621],[-73.371170200191,41.1370146307854],[-73.371526266987,41.1372670308217],[-73.3717732670732,41.1373822308353]]},"properties":{"OBJECTID":1303,"ASSESSMENT_UNIT_ID":"CT7200-31_01","ASSESSMENT_UNIT_NAME":"Stony Brook (Westport)-01","LOCATION_DESCRIPTION":"Mouth Saugatuck River just DS Route 33 crossing, south end of Pasacreta Park, US under Route 1 to just US Kins Highway crossing to Nash Pond OUTLET behind Mike's Factory Direct and Nice Threads building, Westport.","USE_CLASS_NAME":"INLAND SURFACE WATERS CLASS A","WATER_TYPE_NAME":"RIVER","WATER_SIZE":0.53,"UNITS":"Miles","AQUATIC_LIFE_ATTAINMENT_2024":"Not Assessed","RECREATION_ATTAINMENT_2024":"Not Supporting","FISH_CONSUMPTION_ATTAINMENT_202":"Insufficient Information","DRINKINGWATER_ATTAINMENT_2024":"NOT EVALUATED","CYCLE":2024,"Impaired":"Yes"}}]}