{"type":"FeatureCollection","crs":{"type":"name","properties":{"name":"EPSG:4326"}},"features":[{"type":"Feature","id":1304,"geometry":{"type":"LineString","coordinates":[[-73.3772466690859,41.1416507648029],[-73.3773192024454,41.1417002314767],[-73.3775514025318,41.1418980315068],[-73.3776964025956,41.1421836315568],[-73.3778052693018,41.1422605649013],[-73.3779940693653,41.1423100315709],[-73.3782554027908,41.1424473649216],[-73.3788142696555,41.1427606316294],[-73.3791410030989,41.1428486316352],[-73.3793804698549,41.1430573650005],[-73.3794894698904,41.1430684316654],[-73.3795258032309,41.1429915649828],[-73.3794752032014,41.1427719649421],[-73.3794680698574,41.1426347649159],[-73.3795188698698,41.1425688315683],[-73.3796424032417,41.142552364894],[-73.3798456699759,41.1425909648945],[-73.3802594034595,41.1428821649363],[-73.3805860035834,41.1432007649865],[-73.3807964036589,41.1433325650046],[-73.3809124703694,41.1434424316884],[-73.3809270037113,41.1435083650341],[-73.3810212704185,41.1436785650636],[-73.381166403807,41.1438213650861],[-73.3812388038455,41.1440739651322],[-73.3815072706212,41.144452965196],[-73.3817612707125,41.144617765219],[-73.3819646041148,41.1446782318903],[-73.3820590041443,41.144667231885],[-73.3823714709015,41.1445081651768],[-73.3826038709714,41.1444314318208],[-73.3826620043251,41.1444589651573],[-73.3827634710355,41.1446456318565],[-73.382766404376,41.1447489652097],[-73.382901271095,41.1448982319004],[-73.3830536711494,41.1449916319132],[-73.3833804046011,41.1452169652786],[-73.3834724046352,41.1452915652899],[-73.3836270713556,41.1453598319643],[-73.3836780047068,41.1453872319678],[-73.3837288047284,41.1454751653163],[-73.383728604743,41.1457166320296],[-73.3836846714076,41.1459143654026],[-73.3836264714046,41.1461723654545],[-73.3836480714198,41.1463096321466],[-73.3836406714339,41.1465840321999],[-73.3836914714569,41.1466939655527],[-73.3836838714727,41.1469958322779],[-73.3837636715076,41.1471496323048],[-73.384024871603,41.147341965666],[-73.3840902049619,41.1474187656786],[-73.3841120049771,41.147556032371],[-73.3839664049514,41.1479018324427],[-73.3839590716233,41.1480281658007],[-73.3840678050035,41.1482258325017],[-73.3840746717014,41.1487034325935],[-73.384140005061,41.1487913659416],[-73.3842272050918,41.148840765948],[-73.384306871788,41.148906765958],[-73.3843358718016,41.1489781659708],[-73.3845318718787,41.1492142326762],[-73.3846406052609,41.1494449660502],[-73.3848148053254,41.1495876327384],[-73.3849454720453,41.1497744327699],[-73.3850758721116,41.1501807661771],[-73.3853298722048,41.1503729662053],[-73.3855114056022,41.1504719662181],[-73.3856784723232,41.1504829662145],[-73.3866082059529,41.1504559661773],[-73.3868260060231,41.1504615661707],[-73.3870438727626,41.1505110328394],[-73.3871092061169,41.1505110328372],[-73.3871746728018,41.1504672328263],[-73.3872474061526,41.1503684328048],[-73.3873054728355,41.1503299661287],[-73.3876542062815,41.1503466327866],[-73.3877704063159,41.150297232773],[-73.3877994729904,41.1502752327678],[-73.3882426064586,41.1501547660627],[-73.3885406065475,41.1500450326978],[-73.389012806689,41.1498805659832],[-73.3894778068251,41.1496665659258],[-73.3896810068988,41.149809432613],[-73.3898330069548,41.149930432631],[-73.389956873663,41.1499577659653],[-73.3900658070359,41.1500346326432],[-73.3902546070974,41.1500512326397],[-73.3903054071126,41.1500347659682],[-73.3907124072586,41.15029043267],[-73.390813273993,41.1508749661126],[-73.3908132073332,41.1509902328014],[-73.3908832073832,41.1514438328865],[-73.3909072074003,41.1515996329157],[-73.3910160074481,41.1518138329531],[-73.3913062742304,41.1521873663485],[-73.391415074276,41.1523630330453],[-73.3914658076419,41.1526320330954],[-73.3913930076281,41.1527912331286],[-73.3912114742457,41.1529394331634],[-73.3911824075726,41.1529887665073],[-73.3912184075915,41.1531096331961],[-73.391291074286,41.1531864332082],[-73.3914436076704,41.1532195665426],[-73.3915596743752,41.1532360332084],[-73.3917048744344,41.1534446332438],[-73.3920096078973,41.1539719666681],[-73.3923868747182,41.1545210334277],[-73.3925828747976,41.1547956334739],[-73.3926552748287,41.15492736683],[-73.3926626081689,41.1549987668435],[-73.3925608081482,41.1551964335517],[-73.3925460748244,41.1554324335978],[-73.3926258082058,41.1558057670003],[-73.3926876749123,41.1561369670621],[-73.3929008750355,41.157041167229],[-73.393002475081,41.1572553672667],[-73.3930314750917,41.1572773672701],[-73.3931186751174,41.1572389672595],[-73.3931766751363,41.1572444339252],[-73.3936922753215,41.1575739673043],[-73.393895608729,41.1577222339926],[-73.3944620089273,41.1579970340258],[-73.3946218089815,41.1580465673633],[-73.3948322757219,41.158150967376],[-73.3953042758966,41.1585353674339],[-73.3957254093895,41.1589418341643],[-73.395776076081,41.1590845675234],[-73.3957178094108,41.159331567573],[-73.3957030760883,41.15958963429],[-73.3957902094622,41.1597982343272],[-73.3957610761254,41.1598971676806],[-73.3958264094887,41.1600453677068],[-73.3958116761587,41.1601771677328],[-73.3958770095223,41.1603308344268],[-73.3958842761988,41.1604571677843],[-73.3957824095085,41.1606053678161],[-73.3957676761794,41.1607535678453],[-73.3958402762103,41.1608798345338],[-73.3959348095783,41.1609512345445],[-73.3960218762739,41.160967767878],[-73.3962252763388,41.1609623678697],[-73.3962760763571,41.160995234541],[-73.3963196097151,41.1611709679066],[-73.3962832097086,41.1612588345915],[-73.3962830763789,41.1613192346032],[-73.3963340097309,41.1613576346089],[-73.3963266763975,41.1613961679498],[-73.3964428764395,41.1614730346274],[-73.3964428097778,41.1615553679766],[-73.3965300098087,41.161604767983],[-73.3966316098453,41.1616706346588],[-73.3967768099122,41.1620056347183],[-73.396994609991,41.1621539680728],[-73.3970164100016,41.1622143680836],[-73.3970452766875,41.1623790347811],[-73.3971542100665,41.1625548348113],[-73.3973066101223,41.1626701681616],[-73.3973938101525,41.162708568166],[-73.3974228101645,41.1627525681734],[-73.3974010101608,41.1628074348514],[-73.3973862768371,41.1630434348974],[-73.3974444101933,41.1631148349092],[-73.3974442768659,41.1632137682615],[-73.3975386769053,41.1633620349535],[-73.3975530769187,41.1635102349815],[-73.3976836769716,41.1636914350119],[-73.3976690769707,41.1637517683575],[-73.3977200103266,41.1638561683758],[-73.3978216770279,41.1638891683786],[-73.3977924770269,41.164026368406],[-73.3978432770515,41.1641635684307],[-73.3980246771243,41.1644052351377],[-73.398046477141,41.1645644351677],[-73.3980972771618,41.1646413685141],[-73.3982204772213,41.1649707685732],[-73.3981710772171,41.1651643686121],[-73.3975518103792,41.1656129687201],[-73.3974426770172,41.1657171687439],[-73.3973118103215,41.1659312354564],[-73.3972462103214,41.1662770355253],[-73.3971226102898,41.1664087688883],[-73.3971008102918,41.1665570355842],[-73.3971514103242,41.1668260356344],[-73.397311010397,41.1671829690311],[-73.3970922770191,41.1676045691197],[-73.3972948104419,41.1680085691906],[-73.3976762105664,41.1680459691847],[-73.3979568773441,41.1683910359081],[-73.398044077376,41.1684569692511],[-73.3981166107452,41.1686655692888],[-73.3982690774667,41.1687644359692],[-73.3987194109504,41.168863369306],[-73.3988066776487,41.1689238359812],[-73.39887907768,41.1690556360043],[-73.3989008776906,41.1691160360151],[-73.3990606110892,41.169346636054],[-73.3991332777841,41.1694290360672],[-73.39911861112,41.1695498360911],[-73.3985802776856,41.1707299696705],[-73.398456677653,41.1708452363637],[-73.3982314109197,41.1709384363893],[-73.3980424775342,41.1710756364224],[-73.3979986775258,41.1711690364419],[-73.3980930775676,41.171361169809],[-73.3981656775983,41.1714819698297],[-73.3979544109178,41.1723713700084],[-73.397903410921,41.1726951700726],[-73.3977796775687,41.1730355701424],[-73.3977578108993,41.1731068368235],[-73.3977358109131,41.1734527702243],[-73.3976992775789,41.1736283702594],[-73.3977066109225,41.1737601702845],[-73.3977934776319,41.1740072369957],[-73.397793477641,41.1741554370244],[-73.3977498109667,41.1742597703792],[-73.397771477647,41.1743696370664],[-73.3978148776724,41.1745617704353],[-73.3978584776964,41.1747264371321],[-73.3978800110656,41.1752041705567],[-73.3978582110639,41.1752919705744],[-73.3978580110825,41.1755994373002],[-73.3977764110888,41.1761350374062],[-73.3978750777995,41.1763403707758]]},"properties":{"OBJECTID":1304,"ASSESSMENT_UNIT_ID":"CT7200-31_02","ASSESSMENT_UNIT_NAME":"Stony Brook (Westport/Norwalk/Wilton)-02","LOCATION_DESCRIPTION":"INLET Nash's Pond just DS Blind Brook Road crossing, Westport, US under Route 53 and Route 15 in Norwalk, US to HW near south side of Route 33, just US Old Grumman Hill Road crossing, Wilton. Segment includes several small named ponds.","USE_CLASS_NAME":"INLAND SURFACE WATERS CLASS A","WATER_TYPE_NAME":"RIVER","WATER_SIZE":3.29,"UNITS":"Miles","AQUATIC_LIFE_ATTAINMENT_2024":"Not Assessed","RECREATION_ATTAINMENT_2024":"Not Supporting","FISH_CONSUMPTION_ATTAINMENT_202":"Insufficient Information","DRINKINGWATER_ATTAINMENT_2024":"NOT EVALUATED","CYCLE":2024,"Impaired":"Yes"}}]}