{"type":"FeatureCollection","crs":{"type":"name","properties":{"name":"EPSG:4326"}},"features":[{"type":"Feature","id":247,"geometry":{"type":"MultiLineString","coordinates":[[[-73.3750048449342,41.1621163537103],[-73.3750992730555,41.1620615263662],[-73.3757458369217,41.1618038804026]],[[-73.3743233221607,41.1622233532843],[-73.3745412606587,41.1622342634356],[-73.3746649364964,41.1622394975394],[-73.3748680953248,41.162184639102],[-73.3750048449342,41.1621163537103]],[[-73.3739165466227,41.1621684485904],[-73.3740245449681,41.162208662587],[-73.3743233221607,41.1622233532843]],[[-73.3725072660832,41.1624547217386],[-73.3729796023274,41.1623559082402],[-73.3732407517092,41.1622514906742],[-73.373465794777,41.1620316118461],[-73.3735020784476,41.1620097453691],[-73.3736476184192,41.1620041675005],[-73.3737928756459,41.1621246605352],[-73.3739165466227,41.1621684485904]],[[-73.3721149823255,41.1622792891733],[-73.3721617136406,41.1623769642149],[-73.372263737461,41.1624937558144],[-73.3725072660832,41.1624547217386]],[[-73.3721512328733,41.1621367007005],[-73.3721149823255,41.1622792891733]],[[-73.3719474956319,41.1618184130396],[-73.3721379745949,41.1618004931814],[-73.372248534265,41.1619532575709],[-73.3721512328733,41.1621367007005]],[[-73.3715478469904,41.1618076421476],[-73.3719474956319,41.1618184130396]],[[-73.3713807133416,41.1617745006468],[-73.3715478469904,41.1618076421476]],[[-73.3711845845079,41.161785696503],[-73.3713807133416,41.1617745006468]],[[-73.3710174447861,41.1617911067131],[-73.3711845845079,41.161785696503]],[[-73.3677271558334,41.1622541146442],[-73.3680250460046,41.1622539114029],[-73.3682140086625,41.1621935136896],[-73.3687365087445,41.1618473725915],[-73.3688818495082,41.1617812992061],[-73.3690708532299,41.1617647989613],[-73.3692885811733,41.1617537706909],[-73.3700367807065,41.1616489725735],[-73.3703709459298,41.1616654509736],[-73.3710174447861,41.1617911067131]]]},"properties":{"OBJECTID":247,"ASSESSMENT_UNIT_ID":"CT7200-26_01","ASSESSMENT_UNIT_NAME":"Poplar Plains Brook (Westport)-01","LOCATION_DESCRIPTION":"From mouth at confluence with Saugatuck River (Lee Pond section, just DS of Route 15 crossing), US to confluence with unnamed tributary US of Route 33 (Wilton Road) crossing (outlet for Keenes Pond), Westport.","USE_CLASS_NAME":"INLAND SURFACE WATERS CLASS A","WATER_TYPE_NAME":"RIVER","WATER_SIZE":0.5,"UNITS":"Miles","AQUATIC_LIFE_ATTAINMENT_2024":"Not Assessed","RECREATION_ATTAINMENT_2024":"Fully Supporting","FISH_CONSUMPTION_ATTAINMENT_202":"Insufficient Information","DRINKINGWATER_ATTAINMENT_2024":"NOT EVALUATED","CYCLE":2024,"Impaired":"No"}},{"type":"Feature","id":982,"geometry":{"type":"LineString","coordinates":[[-73.3342791936016,41.1221895124816],[-73.3341557930782,41.1227056785811],[-73.3340902401281,41.1227825561401],[-73.3339380261751,41.1228649416137],[-73.333516953301,41.122969524082],[-73.3331903502311,41.1230682759828],[-73.3327764031413,41.1233045175011],[-73.3326384454369,41.1234417032776],[-73.3325296796125,41.1236392417876],[-73.3324789711676,41.1238370470544],[-73.3324789979887,41.1242158187861],[-73.3324065069237,41.1243915036567],[-73.3323195594433,41.12449015781],[-73.3320651656082,41.1246330003176],[-73.3317675808527,41.1247318821223],[-73.3312304106154,41.1247979321165],[-73.3310416195263,41.1248692431046],[-73.3309326838195,41.1250065610496],[-73.3308280029525,41.125120217566],[-73.3308351775716,41.1252575070814],[-73.3307626141637,41.1257188179658],[-73.3305957641546,41.1258724697235],[-73.3301384248606,41.1260866905871],[-73.3300005531611,41.1262348474326],[-73.3300657082217,41.1265313991353],[-73.3299862163506,41.1266741936375],[-73.329935300533,41.1268497673691],[-73.3298555032685,41.1270420920481],[-73.3297467561835,41.127201355592],[-73.3295433977851,41.1273934612859],[-73.3293837090722,41.1275580496735],[-73.3293693433699,41.1277007944663],[-73.3293184283722,41.1280027199788],[-73.3293328362253,41.1282004745702],[-73.3294202354938,41.1284034878582],[-73.3294785455141,41.1286834719454],[-73.3294421243844,41.1288153547068],[-73.329391202034,41.1288645779191],[-73.328730717259,41.1295508956836],[-73.3285928535508,41.129743230711],[-73.3285567060954,41.1299902063387],[-73.3287308562747,41.1301547906676],[-73.3292246724303,41.1306928690117],[-73.3294718784828,41.1311210408668],[-73.3295515210813,41.1314560723884],[-73.3295155673402,41.131598645698],[-73.3293555631406,41.1318127624661],[-73.3290073944399,41.1320874903902],[-73.3288549914938,41.1322357193486],[-73.3286661156178,41.1325102011779],[-73.3286154993185,41.1327625969502],[-73.328542764883,41.133207304375],[-73.3282886688832,41.1335147599207],[-73.3279694198766,41.1337783625948],[-73.3275193773573,41.1345305834916],[-73.327163750638,41.1353540840379],[-73.3271419845191,41.1355024936813],[-73.3271344417549,41.1356176271763],[-73.3270910349276,41.1361392906058],[-73.3269607549995,41.1366445072159],[-73.326837168436,41.137275760926],[-73.3265832369694,41.1378575815131],[-73.3264671314762,41.1380717535229],[-73.3263798676242,41.138137761214],[-73.3261331233685,41.1383956468851],[-73.3257845509256,41.1385879146365],[-73.3250295664206,41.1387031522348],[-73.3247971300069,41.1387690443377],[-73.324339636034,41.1392744972063],[-73.3238747945236,41.1395376949563],[-73.3237950347218,41.1396531889354],[-73.3237587265932,41.1397574917953],[-73.3237732496026,41.139927668957],[-73.3237440910739,41.1401253618015],[-73.3236426550627,41.1402736086892],[-73.3234390810116,41.1404054835002],[-73.3232649383521,41.1406250092669],[-73.323105222536,41.1407071357378],[-73.322742074667,41.1407677701241],[-73.322516915349,41.1407731194591],[-73.3221973156034,41.1408335330778],[-73.3218925834231,41.1409763234258],[-73.3216311728119,41.1411354989086],[-73.321253510554,41.1411970448582],[-73.3211807109253,41.1413004036642],[-73.3212244299648,41.1414045866979],[-73.3212438205547,41.1415786793014],[-73.3213248658172,41.1416944942272],[-73.3212462837997,41.1418603537701],[-73.3211735730811,41.1421018816036],[-73.3211593671392,41.1422226748474],[-73.3210284517838,41.1424915079641],[-73.3207379386678,41.1427718317253],[-73.3203023508128,41.1429363768263],[-73.3200336003268,41.1431943579428],[-73.3199828160344,41.1433043595784],[-73.3199319196653,41.1435294561415],[-73.3199248271142,41.1438258106224],[-73.3200409489452,41.1442923643681],[-73.3202227129643,41.1446876761084],[-73.3202446154284,41.1448085718229],[-73.3201645141624,41.1449291308349],[-73.3197869558309,41.1453466491388],[-73.3195108967647,41.1454507370568],[-73.319344009146,41.1455661008824],[-73.3192931986738,41.1455880215931],[-73.3190391160544,41.1457364615837],[-73.318966505207,41.1458626111905],[-73.3188716830203,41.1459176750043],[-73.3185378406619,41.1460985912754],[-73.3181964245265,41.146521552296],[-73.3181022390497,41.1467356065345],[-73.318022305809,41.1474327631958],[-73.3178990153618,41.1477676849548],[-73.3178697389509,41.1479544019486],[-73.3178335995692,41.1484650493465],[-73.3178624090485,41.1486956586064],[-73.3178336356282,41.1488545139068],[-73.31778998515,41.1492720546209],[-73.3178700243871,41.1499141045565],[-73.3180807266701,41.1502546830621],[-73.3181605115807,41.1503533410931],[-73.3181822121696,41.1504083887982],[-73.3182258860068,41.1505072262553],[-73.3183274072629,41.1506223787139],[-73.3184801269114,41.1507595078282],[-73.3187197867253,41.1509189983767],[-73.3189524288758,41.1511274873845],[-73.3190321588107,41.1511768992138],[-73.3192572302518,41.1512427536262],[-73.3195334040795,41.1513196078075],[-73.3198964148899,41.1515775358584],[-73.3200707457202,41.1517587359511],[-73.3202451150611,41.1519016644561],[-73.3203758617001,41.1519947198451],[-73.3204411471306,41.1521376285598],[-73.3206592306479,41.152340559829],[-73.320746385986,41.1524723844581],[-73.320753806088,41.1527250492652],[-73.3207536317721,41.1531311174512],[-73.3208046370249,41.153301394538],[-73.3208119842862,41.153630882897],[-73.3208627874106,41.1537353116052],[-73.3209426275163,41.1538393143415],[-73.3210951203077,41.1539491447474],[-73.3211172084313,41.1540480889391],[-73.3214584779989,41.1542017192684],[-73.3214946899356,41.1542127939425],[-73.3216474120951,41.1543060198855],[-73.3217854355319,41.1545915185228],[-73.3218942734553,41.1546903105122],[-73.3221410992435,41.1547726530715],[-73.3224535750804,41.1547837510766],[-73.3226354106927,41.1548000067232],[-73.3227007242714,41.1548604629703],[-73.3228243273498,41.1551567264101],[-73.322925855402,41.1552282576626],[-73.3232453388512,41.1554861105708],[-73.3234487914558,41.1557166863676],[-73.3235651555449,41.1559088657281],[-73.3249674262122,41.1585824863684],[-73.3250258044857,41.1593346695486],[-73.3250987049492,41.1596638279183],[-73.3254690975813,41.1600756296024],[-73.3255998041691,41.1602457843356],[-73.3257451868812,41.1606024365489],[-73.3257523075736,41.1607343794476],[-73.3257160213921,41.1609264805881],[-73.3255635851846,41.1613327525179],[-73.3255492935812,41.1617391735556],[-73.3254766818278,41.1621616469799],[-73.3254042083292,41.1624307533113],[-73.3253969451541,41.162705158391],[-73.3253461941935,41.1630732107659],[-73.3253170771973,41.163276250406],[-73.3252228320094,41.1637373836211],[-73.3252082583901,41.1651264719693],[-73.3251575204864,41.1654117903685],[-73.3251138857569,41.1654888330151],[-73.3249178455554,41.1655545417165],[-73.3244890769198,41.1657908256628],[-73.3240969217793,41.1661256977033],[-73.3239955061035,41.1663231902232],[-73.3239952508239,41.166548314991],[-73.324133525043,41.1670699077205],[-73.3241991075505,41.1674981586423],[-73.3243807382233,41.1677834342317],[-73.3244027005891,41.1680363074398],[-73.324475116528,41.1681403450266],[-73.3247365485615,41.1683106876412],[-73.3248673999049,41.1684532651575],[-73.3249110341228,41.1685028544183],[-73.3250854711467,41.168689393337],[-73.3252819716591,41.1690131456761],[-73.3253615133969,41.1692494073821],[-73.3255142196486,41.1695897013002],[-73.3255944017728,41.1700674047176],[-73.3256671376233,41.1704185128788],[-73.3257976942582,41.1709072182186],[-73.3258416814347,41.1711653271295],[-73.3256989512261,41.1715768959824],[-73.3262923181479,41.1726860185935],[-73.3264448072977,41.1731689848042]]},"properties":{"OBJECTID":982,"ASSESSMENT_UNIT_ID":"CT7000-16_01","ASSESSMENT_UNIT_NAME":"Muddy Brook (Westport)-01","LOCATION_DESCRIPTION":"Mouth Mill Creek (LIS Estuary segment) on DS side I95 Exit 18 ramp, US to HW (just US Route 15 crossing), Westport.","USE_CLASS_NAME":"INLAND SURFACE WATERS CLASS A","WATER_TYPE_NAME":"RIVER","WATER_SIZE":4.17,"UNITS":"Miles","AQUATIC_LIFE_ATTAINMENT_2024":"Not Supporting","RECREATION_ATTAINMENT_2024":"Not Supporting","FISH_CONSUMPTION_ATTAINMENT_202":"Insufficient Information","DRINKINGWATER_ATTAINMENT_2024":"NOT EVALUATED","CYCLE":2024,"Impaired":"Yes"}},{"type":"Feature","id":986,"geometry":{"type":"MultiLineString","coordinates":[[[-73.3767010474578,41.1156032467181],[-73.3767591552495,41.1155705663272],[-73.3769335806466,41.1153672776679],[-73.377187574227,41.1153129789469],[-73.377311269521,41.1153294653678],[-73.3775435029271,41.1154503204843],[-73.3780221682027,41.1156590268241],[-73.3781526051163,41.11579620006],[-73.3782034668673,41.1159388748801],[-73.3781448214856,41.116147719704],[-73.3781812308481,41.1162192781542],[-73.3782974793479,41.1162737948988],[-73.3788057188977,41.1163841248073],[-73.3788854592323,41.1163569521613],[-73.3790451997953,41.1162907867221],[-73.3792049951665,41.1163076351409],[-73.3793284730483,41.1164172669588],[-73.3794948480471,41.1166150236403],[-73.3795170662864,41.1166810319753],[-73.3795018609224,41.1167635673459],[-73.3793861808574,41.1168455315343],[-73.3793637910872,41.1170707799734],[-73.3792548115038,41.11715298806],[-73.3791895788078,41.1172571866286],[-73.3792184942774,41.1173231581398],[-73.3792547909753,41.1175373903843],[-73.3792252280088,41.1176360455888],[-73.3789565409394,41.1179816855057],[-73.3789342570011,41.1181408025186],[-73.3790867009861,41.1185145162667],[-73.3792237645667,41.1191843535795],[-73.3792304564126,41.1195315730969]],[[-73.3761837753938,41.1161801525321],[-73.3767010474578,41.1156032467181]],[[-73.3752483025828,41.1166073852488],[-73.3755538027599,41.1164520648052],[-73.3761837753938,41.1161801525321]]]},"properties":{"OBJECTID":986,"ASSESSMENT_UNIT_ID":"CT7000-22_01","ASSESSMENT_UNIT_NAME":"Indian River (Westport)-01","LOCATION_DESCRIPTION":"Mouth Saugatuck River (head Burritt Cove, Saugatuck River Estuary, just DS Saugatuck Avenue (Route 136) crossing), US to I95 crossing, Westport.","USE_CLASS_NAME":"INLAND SURFACE WATERS CLASS A","WATER_TYPE_NAME":"RIVER","WATER_SIZE":0.53,"UNITS":"Miles","AQUATIC_LIFE_ATTAINMENT_2024":"Not Assessed","RECREATION_ATTAINMENT_2024":"Not Supporting","FISH_CONSUMPTION_ATTAINMENT_202":"Insufficient Information","DRINKINGWATER_ATTAINMENT_2024":"NOT EVALUATED","CYCLE":2024,"Impaired":"Yes"}},{"type":"Feature","id":987,"geometry":{"type":"LineString","coordinates":[[-73.3792299982087,41.1195225701126],[-73.3792306542119,41.1195521142174],[-73.3792740107137,41.1199582272511],[-73.3793758058129,41.1201726615014],[-73.3796221956972,41.12037025821],[-73.3797380828745,41.1205021629094],[-73.3798032463828,41.1207767378269],[-73.3798900521042,41.1209414452597],[-73.3802240015856,41.121304025747],[-73.3802455793722,41.1214578359896],[-73.3803611935813,41.1218311884004],[-73.3804769569298,41.1224898850513],[-73.3806182479492,41.1234025524944],[-73.3812956705801,41.1238772034069],[-73.3822784717973,41.1245268845999],[-73.3830443089236,41.1252514883687],[-73.3834170743125,41.1256599950463],[-73.3847729307868,41.1253623413409],[-73.3861892754262,41.1256597915695],[-73.386593264534,41.1261001948926],[-73.3877239353983,41.1260288864376],[-73.3891634230961,41.1256837178689],[-73.389615287899,41.1253862750556],[-73.3898176670499,41.1251127399924],[-73.3906738549102,41.1251363660874],[-73.3907813937626,41.1253625767275]]},"properties":{"OBJECTID":987,"ASSESSMENT_UNIT_ID":"CT7000-22_02","ASSESSMENT_UNIT_NAME":"Indian River (Westport)-02","LOCATION_DESCRIPTION":"I95 crossing, Westport, US to HW (river portions in concrete channels and pipes), Norwalk. (Segment made from site map, actual hydro must be mapped to confirm underground portions).","USE_CLASS_NAME":"INLAND SURFACE WATERS CLASS A","WATER_TYPE_NAME":"RIVER","WATER_SIZE":0.94,"UNITS":"Miles","AQUATIC_LIFE_ATTAINMENT_2024":"Insufficient Information","RECREATION_ATTAINMENT_2024":"Not Supporting","FISH_CONSUMPTION_ATTAINMENT_202":"Insufficient Information","DRINKINGWATER_ATTAINMENT_2024":"NOT EVALUATED","CYCLE":2024,"Impaired":"Yes"}},{"type":"Feature","id":1005,"geometry":{"type":"LineString","coordinates":[[-73.2977101498964,41.1384833222475],[-73.2977955981824,41.1385082389234],[-73.297994560563,41.1386643090648],[-73.2986940393426,41.1399565410373],[-73.2989515602716,41.1406574092461],[-73.2990025516348,41.1407452440513],[-73.29899519192,41.1408440520004],[-73.2989589420253,41.1409157032406],[-73.2987407088293,41.1409924487002],[-73.2987117079353,41.1411293506724],[-73.2988858988811,41.1414372151689],[-73.2989149682022,41.1415741201645],[-73.2988932268648,41.1417334995658],[-73.2986390923139,41.1421011089459],[-73.2983266013326,41.1425238704505],[-73.2980432891282,41.1428752967951],[-73.2979852974449,41.1430179653871],[-73.2979927171348,41.1433255050298],[-73.2980575170672,41.1435505995558],[-73.2980723500944,41.1436768792127],[-73.2982247654945,41.143962336851],[-73.2984133866448,41.1442146963983],[-73.2984424209937,41.1442587378628],[-73.2987615433822,41.1448461859195],[-73.2989289113937,41.145049681777],[-73.299125130506,41.1451866285327],[-73.2994810103619,41.1452744045958],[-73.2996042776502,41.145324183379],[-73.299749544691,41.1454667200317],[-73.2998146384906,41.1455488579142],[-73.3000108203118,41.1456368384636],[-73.3004610790346,41.1457030525079],[-73.3006210604594,41.1456918700628],[-73.3010059471642,41.1455546592379],[-73.3011512250631,41.1455657782285],[-73.3015504783225,41.1457194689731],[-73.301731865499,41.1457304129951],[-73.3018919889818,41.145691931724],[-73.302334858325,41.1454562266426],[-73.3025093113978,41.1454396256286],[-73.3026981438578,41.1454505312278],[-73.3029158260771,41.1455274281182],[-73.303017596078,41.1455880001059],[-73.3031624054926,41.1457634588731],[-73.3033153159793,41.1460162650662],[-73.3033443999531,41.1461095499908],[-73.3032863239977,41.1465049233063],[-73.3032210324508,41.1469276278619],[-73.3033149827336,41.1472952508166],[-73.3034020477405,41.1474653609337],[-73.303620251891,41.1476466535165],[-73.3038885731204,41.1478113830382],[-73.3039756861837,41.1479429395547],[-73.3039978392155,41.1482723569266],[-73.3039759704113,41.1485471139647],[-73.3040340002872,41.1488487801532],[-73.3041794284767,41.1489642950326],[-73.3044913115389,41.149041014114],[-73.3055154352047,41.1491235589658],[-73.3057188938322,41.1491895440613],[-73.3058419835983,41.1492607037124],[-73.3058715381539,41.1493213433544],[-73.3058565994872,41.1493596870898],[-73.3057845629016,41.1494253229549],[-73.3053483375159,41.1496123259572],[-73.3051736906661,41.1497386813195],[-73.3049631164012,41.1499746763106],[-73.3048978761154,41.1502271309054],[-73.3049124032756,41.1507538502328],[-73.3048684811968,41.1511055375833],[-73.3047165406558,41.1514073786056],[-73.3045565020591,41.1516766145445],[-73.3044982845079,41.1519234078683],[-73.3047015256636,41.1524449903571],[-73.3047958123982,41.1525435863514],[-73.304991883406,41.152659137187],[-73.3058639286607,41.15271427637],[-73.3060016815707,41.1527577872719],[-73.3060985437267,41.1528524310911]]},"properties":{"OBJECTID":1005,"ASSESSMENT_UNIT_ID":"CT7109-00_01","ASSESSMENT_UNIT_NAME":"Sasco Brook (Westport/Fairfield)-01","LOCATION_DESCRIPTION":"Bulkely Pond OUTLET dam (US Post Road East (Route 1) crossing), Westport/Fairfield town border, US to Hulls Farm Road crossing (just DS Great Brook confluence), Westport/Fairfield town border. (Segment includes Buckley Pond).","USE_CLASS_NAME":"INLAND SURFACE WATERS CLASS A","WATER_TYPE_NAME":"RIVER","WATER_SIZE":1.42,"UNITS":"Miles","AQUATIC_LIFE_ATTAINMENT_2024":"Not Supporting","RECREATION_ATTAINMENT_2024":"Not Supporting","FISH_CONSUMPTION_ATTAINMENT_202":"Insufficient Information","DRINKINGWATER_ATTAINMENT_2024":"NOT EVALUATED","CYCLE":2024,"Impaired":"Yes"}},{"type":"Feature","id":1006,"geometry":{"type":"LineString","coordinates":[[-73.3060985437267,41.1528524310911],[-73.3061034222688,41.1528569096299],[-73.3061469359699,41.1528952499895],[-73.3061902225349,41.1530379936591],[-73.3062048534694,41.153488169207],[-73.3062484199643,41.1536199367591],[-73.3065172470048,41.1540151270995],[-73.3067132800019,41.1541689462828],[-73.3069748357024,41.1542346453856],[-73.3071635070996,41.1542235959525],[-73.3072577540402,41.1542732261513],[-73.3073016878762,41.1543169118237],[-73.307374399208,41.1545914893302],[-73.3074448372087,41.1547304416114],[-73.3076939611131,41.1548659893726],[-73.3082242603013,41.1551405844303],[-73.3084786583563,41.1552395229024],[-73.308943206311,41.1555743754319],[-73.3093571306585,41.1559972716363],[-73.3095095802973,41.1563209853271],[-73.3097637264189,41.1566503915731],[-73.3099317693583,41.1569250643785],[-73.3095316852498,41.1568150237276],[-73.3093642809767,41.1568755006481],[-73.3093280408771,41.1570349529258],[-73.309400844816,41.157188524815],[-73.3094007582286,41.1572653483584],[-73.309364221953,41.1572598992809],[-73.3095171032689,41.1576770374265],[-73.3095386249622,41.1578857338357],[-73.3095242092208,41.1580284767885],[-73.309385862111,41.1583083070319],[-73.3091754217477,41.1586048113337],[-73.3091537455602,41.158769539198],[-73.3092192373623,41.1588516707373],[-73.3094583401577,41.1589453341002],[-73.3099380310179,41.1591318083352],[-73.3103810683035,41.1595160062762],[-73.3106498449229,41.1598126965133],[-73.3109259413693,41.1602244444165],[-73.3110564665342,41.1603780139099],[-73.311151428271,41.1604659085177],[-73.3113908248077,41.1606361086049],[-73.3115362968149,41.160795513845],[-73.3117397894692,41.1611634355889],[-73.3118918171661,41.1616517700504],[-73.3120662471282,41.1618439556044],[-73.3121172849836,41.1620198649749],[-73.3120225716017,41.1620909621583],[-73.312008414676,41.1623929790958],[-73.3120444202439,41.1625959768922],[-73.3124877732872,41.1633153185903],[-73.3127567379748,41.1634580740425],[-73.3128724749413,41.163622688997],[-73.3129090296316,41.1637162165611],[-73.3131052170097,41.1640124137979],[-73.3132940829481,41.1641935525762],[-73.3135776259972,41.1643421439755],[-73.3139988038143,41.164473734255],[-73.3140494050266,41.1645120366816],[-73.3142314843503,41.1647261315945],[-73.3142529234298,41.1648799547682],[-73.3142239381306,41.1649732416326],[-73.3141441763999,41.165094077171],[-73.3140711714981,41.1652644051745],[-73.3142388446435,41.1656209625875],[-73.3142890313619,41.1656542019036],[-73.314380830074,41.1658057067131],[-73.3142240657133,41.1657637078991],[-73.3141584796828,41.1657584027685],[-73.3138391629378,41.1657802388672],[-73.3135846164039,41.1659286683937],[-73.3134683569122,41.1660494005812],[-73.3134029774072,41.1661974601591],[-73.3133881479644,41.1663345777617],[-73.3134973893537,41.1665656352444],[-73.313497582205,41.1666312017233],[-73.3133519506349,41.1667574254129],[-73.3129889749577,41.167158245474],[-73.3129525948704,41.1673010969419],[-73.3128728235546,41.167723877067],[-73.3128071506577,41.167795114629],[-73.3124877405311,41.1678937704464],[-73.3123716594377,41.1679925511463],[-73.3123861831542,41.1683386077137],[-73.31233481699,41.1685144568448],[-73.312356680857,41.1687614220322],[-73.3124077991696,41.1688160451622],[-73.3125674652864,41.1691509758157],[-73.312546013628,41.1692113018687],[-73.3123350912709,41.1695407382295],[-73.3123279910572,41.1697110218586],[-73.3124370467869,41.1699634687946],[-73.3124950771408,41.1701719849837],[-73.312516532345,41.1708036329833],[-73.3124588681122,41.1712429074008],[-73.3123640239779,41.1714732820768],[-73.3123711251169,41.1716491245819],[-73.3125019140913,41.171830268427],[-73.3125532409228,41.1720385366023],[-73.3125308135873,41.172115470893],[-73.3123716264724,41.1722693371796],[-73.3123713531292,41.1723242130418],[-73.3124367410553,41.1725219992738],[-73.31250200192,41.172834601076],[-73.3124801299415,41.1728895822726],[-73.3124074389236,41.1730545615306],[-73.3124294936551,41.1733234751476],[-73.3124653941081,41.1733838009274],[-73.3124366718176,41.1737244413357],[-73.3124654364376,41.1740372217256],[-73.3125382924148,41.1743666687238],[-73.312632682915,41.1745586852331],[-73.3127998709246,41.1746411589979],[-73.3129528177023,41.1747563449489],[-73.3130321682144,41.17523377884],[-73.3131267058461,41.1754426777144],[-73.3131195484898,41.1755195369104],[-73.313184789401,41.1756565410426],[-73.3130835547578,41.1761396481343],[-73.3129015698912,41.176458249036],[-73.3128797958799,41.176567823373],[-73.3128723124191,41.1766503110813],[-73.3129015965662,41.1769796913125],[-73.3131484528837,41.1774025524593],[-73.3133662748568,41.1776111258409],[-73.3134099098436,41.1777043373843],[-73.3133302535729,41.1780120228373],[-73.3133301749202,41.1781324651053],[-73.3133010913538,41.1782150592261],[-73.3131994628221,41.1782642427211],[-73.3129594184673,41.1782862484264],[-73.3128866068491,41.1783082753046],[-73.3128508596858,41.1783523501141],[-73.3127345993313,41.1786486777558],[-73.3126471372555,41.1787858706427],[-73.3124726168198,41.1789344663676],[-73.3120952458736,41.1791425919864],[-73.3120051099725,41.1791858073499],[-73.3120225444868,41.1793072882013],[-73.3120369743921,41.1796423703039],[-73.3119568285199,41.1798510037229],[-73.3118552238286,41.1801196811335],[-73.3118914204823,41.1802573914312],[-73.3118696542386,41.1804547623326],[-73.3115862698308,41.1805920729739],[-73.3114630822136,41.180646988579],[-73.311353823519,41.180762337998],[-73.3110630435411,41.1809928282428],[-73.3107798762382,41.1810257337247],[-73.3105689575508,41.1809707676357],[-73.3102415623398,41.1810148650633],[-73.309784016925,41.1809104521783],[-73.3094209393611,41.1807895365866],[-73.3092608228202,41.1807948228012],[-73.3091008050512,41.1808116449056],[-73.3088904561425,41.1808664209903],[-73.3086359564179,41.1807674845018],[-73.308410657948,41.1807291881219],[-73.3081348934888,41.1807567049254],[-73.3076916591045,41.1808444136132],[-73.3072629516129,41.1809323316397],[-73.3068267931823,41.1810639022376],[-73.3065070308431,41.1811298994229],[-73.3062451828113,41.1811297666926],[-73.3058384005111,41.1812122258406],[-73.3054095951714,41.1813330615034],[-73.3052572527891,41.1814204733144],[-73.3049442416373,41.1816237585916],[-73.3049081598053,41.1817170791248],[-73.3049660844709,41.1819149065499],[-73.3050824900969,41.1821566308239],[-73.3051187114092,41.1822110476404],[-73.3051264443424,41.182332013763],[-73.3050243423585,41.1825460947091],[-73.3049297856566,41.1828152943398],[-73.3049371894009,41.1828974282703],[-73.30501001593,41.1831829819372],[-73.3051257697622,41.1833915033512],[-73.3052347241393,41.183545184109],[-73.3053727376151,41.1838307020223],[-73.3054091582116,41.1842149227371],[-73.3053657716886,41.1845004767408],[-73.3053292220819,41.1845389261114],[-73.3050898066288,41.1846816339053],[-73.3049807606415,41.184780373552],[-73.3049657213632,41.184851641656],[-73.30503123835,41.1851096526063],[-73.3050675138946,41.1851702597798],[-73.305074737256,41.1854502220502],[-73.3050096465701,41.1855054114467],[-73.3049368218216,41.1855271514232],[-73.3047841951998,41.1856261013975],[-73.3047188696564,41.1857851309737],[-73.3047258584164,41.1860816969164],[-73.304681955792,41.1864384482303],[-73.3047110642386,41.1868393079751],[-73.30481313231,41.1869271742778],[-73.3048640744825,41.1870479307864],[-73.3049002088856,41.1872233516997],[-73.3048565420495,41.1876079609864],[-73.3048636299998,41.1881349961268],[-73.3049871277657,41.1887714962984],[-73.3051179362688,41.1891285254752],[-73.3051831356007,41.1894360653705],[-73.3052920078882,41.1897101872698],[-73.3054665097789,41.1904297337594],[-73.3055175969983,41.1906546093828],[-73.3054906105712,41.1908103564814],[-73.3053501560505,41.1908526861428],[-73.3051760425174,41.1908358032175],[-73.3048557642613,41.1908908233019],[-73.3046594443101,41.191022628108],[-73.304587403709,41.1910497109021],[-73.3042751672921,41.1912183786686],[-73.3038746681507,41.1916536797329],[-73.3035333828334,41.1916921961765],[-73.3032784780617,41.1918130255094],[-73.3029445937518,41.1920217536323],[-73.3027262849271,41.1921091997761],[-73.3026246291736,41.1921586547563],[-73.3022027783631,41.1923179971534],[-73.3021376765953,41.1923290042558],[-73.3013961354126,41.1925261870459],[-73.3011198510555,41.1926307939],[-73.3009279270574,41.192666893606],[-73.3005605199819,41.1928335656951],[-73.3002045112951,41.1928940915213],[-73.2991283583233,41.1933056099014],[-73.298961636896,41.1934153124367],[-73.298627023433,41.1937171757756],[-73.2984743208131,41.1938104905821],[-73.2982052813738,41.1940248025602],[-73.2980163372556,41.1942390120659],[-73.2977982837141,41.1944474509882],[-73.2971947822305,41.1946281855504],[-73.2969840459404,41.1947766493892],[-73.2967005208954,41.1949082945174],[-73.2963297072019,41.1952046961934],[-73.2959738934325,41.1954242013084],[-73.2958285839135,41.1955560282444],[-73.2957700346941,41.1956381963669],[-73.2957844765332,41.1959842534879],[-73.2957043901976,41.1962530949849],[-73.2955989977629,41.1964362288626],[-73.2955372235773,41.1968459655353],[-73.2954139192242,41.1971150128845],[-73.2954059809727,41.1972796719946],[-73.2955006849939,41.197466634825],[-73.295755307209,41.1976640913332],[-73.2960896216316,41.1978124840471],[-73.2961836865784,41.1978781649865],[-73.2963069730218,41.1981857131949],[-73.2963073086959,41.1984930038332],[-73.296176413479,41.1987454857145],[-73.2960962463646,41.1989158356389],[-73.2960598458176,41.199151826552],[-73.2960454938382,41.1992177431928],[-73.2960307099051,41.1994100121954],[-73.2959945560472,41.1995418810186],[-73.295964929912,41.1999644092738],[-73.296022868549,41.2007439029631],[-73.2960014818341,41.2008152000364],[-73.2957102963455,41.2009252106407],[-73.2954046885926,41.2012266439377],[-73.2952160980539,41.2013530493785],[-73.2951431982929,41.2014575158187],[-73.2950342008708,41.2015672192142],[-73.2948815718245,41.2016276037482],[-73.2947798329066,41.2018034031893],[-73.2946854036968,41.2019622833942],[-73.2946491597362,41.2020392787446],[-73.2945981188527,41.2023524425429],[-73.2946194039601,41.2026706080187],[-73.2946700399995,41.2029340421718],[-73.2949244313706,41.2032800831073],[-73.295164588479,41.2034829567117],[-73.2955276427664,41.2038566175634],[-73.2955932505959,41.203993911506],[-73.2954765958256,41.2049709382638],[-73.2953749805854,41.2052511366556],[-73.2953455250356,41.2053826932267],[-73.2953821673646,41.2054869194421],[-73.2958395940634,41.2058713859559],[-73.2959121769271,41.2061293688586],[-73.2958179603354,41.206447803242],[-73.2957524917363,41.2066839325625],[-73.2958393663058,41.2070023476573],[-73.2957886292648,41.2071286580758],[-73.2956867221347,41.2074634514562],[-73.2957155821613,41.2076172421146],[-73.2957371183726,41.2078754676507],[-73.295737572377,41.2079742376276],[-73.2957738168915,41.2082982419918],[-73.2958754187892,41.2085504577505],[-73.2958971902432,41.2087920787271],[-73.2960424894756,41.2094124427377],[-73.2960202829573,41.2096978913236],[-73.2960420035666,41.2099777843126],[-73.2960712480568,41.2100437746784],[-73.2961003856568,41.2102304879372],[-73.2961148603162,41.210312588491],[-73.2961726838268,41.210587524142],[-73.2963689373516,41.2108837500195],[-73.2963838339886,41.2109717581738],[-73.2964925325545,41.2111361411341],[-73.296521540695,41.2112626337245],[-73.2965429858351,41.211509603873],[-73.2964561653237,41.2118662751126],[-73.2965212197622,41.2120697010493],[-73.2965865641055,41.2121298901464]]},"properties":{"OBJECTID":1006,"ASSESSMENT_UNIT_ID":"CT7109-00_02","ASSESSMENT_UNIT_NAME":"Sasco Brook (Westport/Fairfield)-02","LOCATION_DESCRIPTION":"Hulls Farm Road crossing (just DS of Great Brook confluence), Westport/Fairfield town border, US to headwaters at marsh (US of Burr Street crossing), Fairfield.","USE_CLASS_NAME":"INLAND SURFACE WATERS CLASS A","WATER_TYPE_NAME":"RIVER","WATER_SIZE":5.2,"UNITS":"Miles","AQUATIC_LIFE_ATTAINMENT_2024":"Not Assessed","RECREATION_ATTAINMENT_2024":"Fully Supporting","FISH_CONSUMPTION_ATTAINMENT_202":"Insufficient Information","DRINKINGWATER_ATTAINMENT_2024":"NOT EVALUATED","CYCLE":2024,"Impaired":"No"}},{"type":"Feature","id":1008,"geometry":{"type":"LineString","coordinates":[[-73.3659584713008,41.1492323103163],[-73.3655641333711,41.1498951762336],[-73.365361750004,41.1505032574745],[-73.3653941621317,41.150940388702],[-73.3658588114568,41.151415994677],[-73.3664502532885,41.1519919411641],[-73.3667433852938,41.1523995247439],[-73.3670557695344,41.1531894336523],[-73.3674381444988,41.1535841515562],[-73.3677418002087,41.1538433748172],[-73.3677227524201,41.1539551966815],[-73.3677093062722,41.1541080716783],[-73.3673646934191,41.1547940318592],[-73.367194600965,41.1548790899352],[-73.3669022424138,41.1550278432265],[-73.3665416287385,41.1554006817551],[-73.3662070711501,41.1556943031663],[-73.3660695677533,41.1559978375866],[-73.366028202715,41.1563098584369],[-73.3660713502095,41.1566999357198],[-73.3661567147429,41.1571446593725],[-73.3662521392437,41.1573532295829],[-73.3662990266948,41.1574292384244],[-73.3666909527211,41.1577687516059],[-73.3662710054521,41.1597076512502],[-73.3673238564956,41.1610696047825],[-73.367592504941,41.1617575975723],[-73.3676870876224,41.1621910145243],[-73.3677271558334,41.1622541146442],[-73.3676599371116,41.1623912410929],[-73.3676543665812,41.1626290595474],[-73.3675479777251,41.1628373112517],[-73.367081557435,41.1636027205002],[-73.3663077493575,41.1652975794143],[-73.3663567686819,41.1671374286624],[-73.3665865304673,41.1675312827406],[-73.3670790301033,41.1680244637884],[-73.3672468960075,41.1683699682299],[-73.3672439043883,41.1689989258904],[-73.3671632020627,41.1692076021241],[-73.3668302533221,41.1694027240466],[-73.3663440074755,41.1696912536437],[-73.3656498450405,41.1702054630002],[-73.3649277895922,41.1708433553607],[-73.3642393583103,41.1714149311027],[-73.3641524111904,41.1715943729038]]},"properties":{"OBJECTID":1008,"ASSESSMENT_UNIT_ID":"CT7200-00_01","ASSESSMENT_UNIT_NAME":"Saugatuck River (Westport)-01","LOCATION_DESCRIPTION":"Hydraulic Pond OUTLET dam (head of estuary, saltwater limit), US (through Hydraulic Pond and lower end Lee Pond) to confluence West Branch Saugatuck River (parallel Ford Road), Westport.","USE_CLASS_NAME":"INLAND SURFACE WATERS CLASS A","WATER_TYPE_NAME":"RIVER","WATER_SIZE":1.74,"UNITS":"Miles","AQUATIC_LIFE_ATTAINMENT_2024":"Fully Supporting","RECREATION_ATTAINMENT_2024":"Not Supporting","FISH_CONSUMPTION_ATTAINMENT_202":"Insufficient Information","DRINKINGWATER_ATTAINMENT_2024":"NOT EVALUATED","CYCLE":2024,"Impaired":"Yes"}},{"type":"Feature","id":1013,"geometry":{"type":"LineString","coordinates":[[-73.3631614255853,41.1727070211636],[-73.3628198841443,41.1730611718219],[-73.3627370525005,41.1732037257437],[-73.3626180238671,41.1735369849355],[-73.3625623169345,41.1738713113422],[-73.3623969081553,41.1741440351756],[-73.3621060097425,41.1743794402324],[-73.3618629329872,41.1745912326443],[-73.3616264525509,41.174752054026],[-73.3616045804575,41.1747628648215],[-73.36149626661,41.1748892324034],[-73.3612784586714,41.175174897849],[-73.3611110943582,41.1752793493003],[-73.3609661998007,41.1753175509426],[-73.360529923519,41.1753015889795],[-73.3604864504133,41.1753125148744],[-73.3602173804755,41.1754937684347],[-73.360166830881,41.175504731065],[-73.3600578579507,41.1755210713083],[-73.3598834163284,41.1754662832763],[-73.3598034460887,41.1754774035389],[-73.3596945100419,41.1755376422869],[-73.3596361273732,41.1755871994796],[-73.3594110367356,41.1759716738743],[-73.3593752287395,41.1761255113366],[-73.3592445856678,41.1763341668523],[-73.3589757909411,41.1764658881779],[-73.3586927514541,41.1767077159276],[-73.3585403043789,41.1767352599472],[-73.3583509188767,41.1767956444952],[-73.3581404198144,41.1768285627307],[-73.3578789338463,41.1769056515335],[-73.3578137927265,41.1769496149489],[-73.3576249820233,41.1770319447502],[-73.3575447714558,41.1770976566487],[-73.3573050759214,41.1772351300131],[-73.3569131329157,41.1774220940632],[-73.3567311587136,41.17755897804],[-73.3565278125718,41.1778009394194],[-73.356375573821,41.1780918763026],[-73.3560052543372,41.1787233424497],[-73.3557441509957,41.1790033167951],[-73.3556056032369,41.1791244918843],[-73.3550832802219,41.1794317374975],[-73.3546250872095,41.1795858379498],[-73.3542910552114,41.179794436214],[-73.3539276834871,41.1799319920908],[-73.3537387960029,41.1799267987092],[-73.3531719377842,41.1797291483024],[-73.3528230083821,41.179696374454],[-73.3524089451637,41.1797897317718],[-73.3520242683216,41.1799600371095],[-73.3516248956536,41.180152368849],[-73.3512030335876,41.1802893808594],[-73.3509923369142,41.1803833512757],[-73.3507671890668,41.1805260812308],[-73.3506002780716,41.1807236596256],[-73.3503751177027,41.1811081160961],[-73.3501502791531,41.181365937582],[-73.3500484556386,41.1814320393859],[-73.3496120665549,41.1814483985339],[-73.3493799886612,41.1816077637368],[-73.3492709956527,41.1817450978052],[-73.3491841515669,41.1820635404458],[-73.3491186356097,41.1821896727368],[-73.3489954481526,41.1824039041135],[-73.3489156812082,41.1829254836516],[-73.3488644510181,41.1831066956522],[-73.3487198294263,41.1832990894367],[-73.348378339853,41.1835516082027],[-73.3481383883487,41.1837878370204],[-73.3479422769351,41.1841338645385],[-73.347702812938,41.1843425116317],[-73.3474119863974,41.1844743214417],[-73.3472959192128,41.1844906864736],[-73.3470997861616,41.1844686354702],[-73.3467726325797,41.184375508757],[-73.3466271335001,41.1843098565599],[-73.3465327066482,41.1842487210433],[-73.346441244708,41.1841042743122],[-73.3460656460505,41.1839677819706],[-73.3459587545245,41.1838467721649],[-73.345827729128,41.183815937069],[-73.3455807123183,41.1837280182276],[-73.3453330266363,41.1836074590491],[-73.3451663453525,41.1835469803163],[-73.3449551933087,41.1834704110301],[-73.3447227600852,41.1834702124292],[-73.3444468053866,41.1835583202395],[-73.3442073791747,41.1836901356834],[-73.3436619298076,41.1841676985766],[-73.3434223014464,41.184277563919],[-73.3433570720032,41.1843547264129],[-73.3432479335709,41.1844368998342],[-73.3428630073047,41.1845852258516],[-73.3427466934729,41.1846567430823],[-73.3427323419181,41.1847170380554],[-73.3427904629551,41.1850465436362],[-73.3429287435307,41.1853429904005],[-73.3430378469015,41.1856668846571],[-73.3430820192135,41.1861827520288],[-73.3430237156262,41.1863254449924],[-73.3428711182031,41.1864627170266],[-73.3427840808731,41.186599930951],[-73.3426606650315,41.1867922069953],[-73.3426170193458,41.1870724312321],[-73.3425954979892,41.1873688624626],[-73.3427554009075,41.1881590623889],[-73.3428066863956,41.1881866557688],[-73.3429370394513,41.1882248149311],[-73.3430101793465,41.188279871347],[-73.3430461943521,41.1883897147483],[-73.3430100406915,41.1885106242986],[-73.3426976161472,41.1889335067097],[-73.3425164482595,41.1889608970359],[-73.34219633314,41.1889062745705],[-73.3418911414436,41.1888951910949],[-73.3418329546671,41.1889281345324],[-73.3417897193651,41.1889666293275],[-73.34169470557,41.189169732052],[-73.3414115969432,41.1895814844894],[-73.3412093054626,41.1900735820579],[-73.3410701734833,41.1901359281441],[-73.3409907541837,41.1902514327328],[-73.3409179621366,41.1905641682034],[-73.3407579053542,41.1909488314614],[-73.3407437238277,41.1909871748961],[-73.3405653147263,41.1911966178463],[-73.3403077636118,41.1913878952791],[-73.3402496730526,41.1914318121261],[-73.3401406943972,41.1916569359036],[-73.3401333661605,41.1919589211245],[-73.3402886055184,41.1923177551533],[-73.3399797560406,41.192604411445],[-73.3397199141175,41.1929552552291],[-73.339625462782,41.1931394995132],[-73.3395961279486,41.1932325145114],[-73.3394656597802,41.1935126210984],[-73.3391966063323,41.1937104285661],[-73.3389933876274,41.1940618236015],[-73.3387895981021,41.1943088207945],[-73.3385722228581,41.1944953851307],[-73.3384045254155,41.1945725081314],[-73.3382159089295,41.1947259996662],[-73.3381071180575,41.1949733508217],[-73.3380705737671,41.1951764306868],[-73.3379471922803,41.1955825688178],[-73.3377582168643,41.1960275967381],[-73.3377434565809,41.1961261641743],[-73.3378020826916,41.1964719900717],[-73.3377074134058,41.1968399911257],[-73.3376639923916,41.1969001528652],[-73.3374016000673,41.1971364737572],[-73.3372718891789,41.1972955699629],[-73.337184755728,41.1973835340858],[-73.3369592735721,41.197498941606],[-73.3367123810484,41.1976364079317],[-73.3364140735339,41.1976911226879],[-73.3356581739653,41.1978615868021],[-73.3354259288236,41.1979711153204],[-73.3349025869466,41.1981088664625],[-73.3344519780402,41.1983391073794],[-73.3342692850971,41.1984075781389],[-73.3339793386083,41.198606040765],[-73.3335745746999,41.1987141957562],[-73.3334781270301,41.1988446969004],[-73.3334272028529,41.1991080689734],[-73.3334566008192,41.1994374443176],[-73.3334202679929,41.1996241998561],[-73.3333474288183,41.199728410614],[-73.3333093227373,41.1999253061482],[-73.3331950163849,41.2001839370824],[-73.3331879984453,41.2003159513363],[-73.3331514382411,41.2005190295386],[-73.3330354187032,41.2007112570266],[-73.3329770402662,41.200974668635],[-73.3330068087511,41.201304041254],[-73.3331156850052,41.2016884470695],[-73.3331449235276,41.2018748691602],[-73.333166811768,41.2020728662089],[-73.3332540683582,41.2023307505074],[-73.3333119000285,41.2027148535479],[-73.333297949848,41.2028632256332],[-73.3330215128463,41.2032419972585],[-73.332621667118,41.2036540398956],[-73.3323600777797,41.2040271073265],[-73.3323383985092,41.2041864924237],[-73.3323751188105,41.2045434069962],[-73.332461934866,41.2047520483455],[-73.3324914842186,41.2050152928842],[-73.3324186691628,41.2050812309151],[-73.331953381241,41.2056357135944],[-73.3317793470389,41.2060091779456],[-73.3315757422398,41.2066186090872],[-73.3315395676694,41.2066570639789],[-73.3313214378052,41.2071841167248],[-73.3311904106327,41.2072829919802],[-73.331059760391,41.2075079347877],[-73.3309581702647,41.207941813097],[-73.3308638403164,41.2081449027594],[-73.3307361580164,41.2083267749808],[-73.3305872356322,41.2084248966213],[-73.3303988494933,41.208485229075],[-73.3301368953152,41.2086115006639],[-73.3299406218332,41.2087486953182],[-73.3296429003239,41.2090014984754],[-73.3293592906937,41.2095010198728],[-73.329228255896,41.2095998928638],[-73.3289088343526,41.2100115148646],[-73.3289465877627,41.2101928297478],[-73.3291626250645,41.2104343065162],[-73.3294465309934,41.210554998367],[-73.3297086101052,41.2106096700089],[-73.3301010985521,41.2106206257805],[-73.330311926342,41.2108624086518],[-73.3303556007223,41.2110383461683],[-73.3303410527216,41.2111205897963],[-73.3303119443189,41.2112414601161],[-73.330173647902,41.2113620394682],[-73.3299487696695,41.2115103538041],[-73.3296651114035,41.2116696592411],[-73.3293960957835,41.2118834806181],[-73.3292803000794,41.2123981924524],[-73.329214753224,41.2129483878323],[-73.3292218025903,41.2129869040911],[-73.3291563874056,41.2133001565777],[-73.3291274354821,41.2133551775348],[-73.3290472800737,41.2133932913878],[-73.329011151387,41.2134373730246],[-73.3287710164601,41.2135472093311],[-73.3284442315485,41.2137613214585],[-73.3279168986049,41.2140535513213],[-73.3274695390843,41.2144556840865],[-73.3270154543736,41.2151094252059],[-73.3266511987266,41.2155128248521],[-73.3263951277972,41.2157606243178],[-73.3259954748114,41.2159123438736],[-73.3258264851153,41.216019846497],[-73.3256754715993,41.2162218094237],[-73.3258361959386,41.216444436052],[-73.3259755790226,41.216698123785],[-73.325917667931,41.2181591821237],[-73.3257628220132,41.218518751446],[-73.325299580718,41.2195338526705],[-73.3254727722307,41.220070745647],[-73.3253425281374,41.2203046839428],[-73.3247095361418,41.2206255687653],[-73.3241783851727,41.2210424611681],[-73.3236349717103,41.2219307633702],[-73.3236387166631,41.2222295960884],[-73.324238718214,41.2231971487198],[-73.3244065381781,41.2239704474076],[-73.324565356825,41.2242713146718],[-73.324831074317,41.2244793450686],[-73.3255151902339,41.2245836846457],[-73.3258465283058,41.2246670016547],[-73.3259856406776,41.2250568901275],[-73.3263714474895,41.2254410331971],[-73.326482657394,41.2257517057618],[-73.3267020287409,41.2259439255547],[-73.3267212707469,41.226223261842],[-73.3269250345573,41.2265047647983],[-73.326854675948,41.226683247475],[-73.3267474731469,41.226741756944],[-73.3263904154315,41.2267863288536],[-73.3259147259117,41.2268191154517],[-73.3258039069501,41.2270169365188],[-73.325811429177,41.2272358306083],[-73.3259514918491,41.2274371743633],[-73.3258668543347,41.2276452756344],[-73.3256798498412,41.2277421746747],[-73.3251652045165,41.2277543302325],[-73.3244194375654,41.2282716374044],[-73.32401971738,41.2289332523112],[-73.3237508208554,41.2291284881906],[-73.3236117004114,41.2294153719678],[-73.3233814629348,41.229641085242],[-73.3231207376815,41.2300456432266],[-73.3229286740656,41.2303316665495],[-73.3227493702258,41.2306277557497],[-73.3227731512977,41.2312560103855],[-73.3229902879806,41.2317870580366],[-73.323104451141,41.231967991087],[-73.3229770301927,41.2323147556524],[-73.3229642900671,41.2324769076141],[-73.3228405766735,41.232482029962],[-73.3226657455829,41.2326089731677],[-73.3223525471511,41.2329828360682],[-73.3221922788163,41.2330703092355],[-73.3218868933311,41.2331452814921],[-73.3213027921784,41.2332762377255],[-73.3208941898136,41.2332706783623],[-73.3206811728282,41.2333370258891],[-73.3202259033671,41.2335796130931],[-73.3197872809507,41.2337224988619],[-73.3196483321527,41.2339893984479],[-73.319484052938,41.2342159009474],[-73.3192628058612,41.2346210970864],[-73.3192647675923,41.2350595134791],[-73.3191253273628,41.2353562431073],[-73.3187972921353,41.2356142324328]]},"properties":{"OBJECTID":1013,"ASSESSMENT_UNIT_ID":"CT7202-00_01","ASSESSMENT_UNIT_NAME":"Aspetuck River (Westport-Easton)-01","LOCATION_DESCRIPTION":"Confluence Saugatuck River (DS Weston Road (ROUTE 57) crossing), Westport, US to Aspetuck Reservoir OUTLET Dam (US Black Rock Turnpike (Route 58) crossing), Easton. (Segment passes through Pfeiffer Pond, Weston/Easton town border)","USE_CLASS_NAME":"INLAND SURFACE WATERS CLASS A","WATER_TYPE_NAME":"RIVER","WATER_SIZE":5.93,"UNITS":"Miles","AQUATIC_LIFE_ATTAINMENT_2024":"Fully Supporting","RECREATION_ATTAINMENT_2024":"Fully Supporting","FISH_CONSUMPTION_ATTAINMENT_202":"Insufficient Information","DRINKINGWATER_ATTAINMENT_2024":"NOT EVALUATED","CYCLE":2024,"Impaired":"No"}},{"type":"Feature","id":1103,"geometry":{"type":"LineString","coordinates":[[-73.32924438952,41.1828968410775],[-73.3296585896493,41.1828364410515],[-73.3300437897696,41.1827814410276],[-73.3303453898403,41.1823529742681],[-73.3301260563921,41.1816168408005],[-73.3296800562043,41.1808765740065],[-73.3294982561199,41.1804427739292],[-73.3293236560284,41.1798553738221],[-73.3293381893534,41.1796413737804],[-73.3294232560097,41.1790205736578],[-73.3297782561063,41.1787352402573],[-73.3298320561159,41.1786091735644],[-73.3300644561689,41.1782522401544],[-73.3304421896025,41.1779063734079],[-73.3306601896579,41.1776647733539],[-73.3307908563464,41.1773353732858],[-73.3309214563293,41.1763581730931],[-73.3309068563057,41.1760451730332],[-73.3307831895752,41.1756444396269],[-73.330826789576,41.175424839583],[-73.3310154562756,41.1749691728222],[-73.3311534562962,41.1745793727424],[-73.3312259896332,41.174255439344],[-73.3313640563299,41.174019372627],[-73.3314439896833,41.173926039273],[-73.3315746563866,41.1738380392514],[-73.3316835897336,41.1734867725134],[-73.3317053897369,41.1734263725011],[-73.3316543897122,41.1732891724763],[-73.3315599896737,41.1731518391198],[-73.3315235896339,41.172685239031],[-73.3313927895831,41.1725425723414],[-73.3312182561856,41.172405372321],[-73.3310946561349,41.1722241722903],[-73.3310437894378,41.1719881722467],[-73.3310655894242,41.1716477721803],[-73.3310073893946,41.1714665721475],[-73.3310363893914,41.1712579721063],[-73.3310508560586,41.1711920387597],[-73.3310798560618,41.1710932387396],[-73.3312469894327,41.1708242386821],[-73.3313340561176,41.1706649719816],[-73.3313775894433,41.1703081719113],[-73.3312539893745,41.1698250384893],[-73.3311084559677,41.1693803717418],[-73.3310938559513,41.169188238372],[-73.3311810559611,41.1688863716441],[-73.3319217894631,41.1677497713994],[-73.3320451894902,41.1675411713549],[-73.3323574562395,41.1672500379548],[-73.3326624563137,41.1668602378693],[-73.332858656362,41.1666186378158],[-73.3332000564537,41.1663221710802],[-73.3333452564934,41.166212371054],[-73.3337810566039,41.1657236376114],[-73.3339335899774,41.1655808375787],[-73.3340279899979,41.165416170877],[-73.3341296566901,41.165300837518],[-73.3342603900577,41.1651745708223],[-73.3344853901027,41.1647243707278],[-73.3345580567898,41.1646804373836],[-73.3348413902122,41.1646474373675],[-73.3349648569148,41.1645869706848],[-73.3350664569361,41.1644003706454],[-73.3350664569294,41.1642905706243],[-73.3350519902522,41.1641917706057],[-73.334877456839,41.163796437202],[-73.3348554568123,41.1634726371405],[-73.3349353901475,41.1630772370616],[-73.3347970567418,41.1626161703108],[-73.3347283900395,41.1623906369364],[-73.3348379900601,41.1621489702193],[-73.3349488567447,41.1618551701589],[-73.3350220567606,41.1617322367993],[-73.3351163901097,41.1614906367493],[-73.3353123901417,41.1609799699776],[-73.3354139901653,41.1608317699454],[-73.3354502568349,41.1606890365834],[-73.3353776568004,41.1605023698833],[-73.3352830567625,41.160376169862],[-73.3351958567182,41.1601071698132],[-73.3348833899218,41.1596186363965],[-73.3348251898946,41.1594759697045],[-73.3346289898173,41.1592398363324],[-73.3345925897981,41.1591135696425],[-73.3346506564727,41.1589378362734],[-73.3347595898343,41.1588280362484],[-73.3351444566103,41.1585919695229],[-73.3351735899508,41.1585590361823],[-73.3351735899429,41.1584272361568],[-73.3351080565812,41.1583064361359],[-73.3350062565423,41.1582021694526],[-73.3349627898541,41.1580758360964],[-73.3349699898526,41.1580100360834],[-73.3350149898593,41.1578852360578],[-73.3355001900012,41.1576585693308],[-73.3356308567084,41.1576366359886],[-73.3357463900767,41.1576004359777],[-73.3359581901332,41.1574122359341],[-73.33639659027,41.1573491692401],[-73.3364443902811,41.1572795692251],[-73.3366186570003,41.1572246358752],[-73.3367802570496,41.1571808358612],[-73.3372158571922,41.1572306358557],[-73.3373885905783,41.1571860358411],[-73.3376137906515,41.1572024358366],[-73.3377299906866,41.1571695691595],[-73.3380712574456,41.1568839690927],[-73.3386158575943,41.1564555689913],[-73.3387901909786,41.1563732356361],[-73.3390080577042,41.1561920355937],[-73.3392768577825,41.1560602355588],[-73.3394220578254,41.1559998355423],[-73.3396254578899,41.1559887688664],[-73.3397561912599,41.1559008355117],[-73.339995858,41.1558459688262],[-73.3401556580503,41.1558294354841],[-73.3406712582038,41.1556316354283],[-73.3410488583095,41.1553790353665],[-73.3412231916864,41.1551758353213],[-73.3412884583662,41.1550440352937],[-73.3412302583356,41.1548464352574],[-73.3412448583377,41.1548080352497],[-73.3413536583697,41.1547586352363],[-73.3416006584487,41.1547530352268],[-73.3421307919247,41.1543027684549],[-73.3423049919704,41.1541324350827],[-73.3431326588649,41.153511968268],[-73.3432416588941,41.1534185682462],[-73.3435321923121,41.1532757682087],[-73.3440476591231,41.1529297681241],[-73.3443670592047,41.1525837680463],[-73.3446720592923,41.1524135680031],[-73.34510779274,41.1519961679075],[-73.3453327927997,41.1517875678595],[-73.3456595928971,41.1516666344915],[-73.3457684595917,41.1515513677989],[-73.3460151929855,41.1512438343978],[-73.3464363931016,41.1509307676561],[-73.3466252598325,41.1509910343281],[-73.3467704598861,41.1511063676786],[-73.3469812599606,41.1512215676933],[-73.3472645933944,41.151380634381],[-73.3474389934544,41.1514464343877],[-73.3476423935199,41.1514519677151],[-73.3478601935865,41.151396967697],[-73.3480344603017,41.1512761676678],[-73.348172393662,41.1509905676078],[-73.3483101936859,41.1506556342052],[-73.3484262603765,41.1504360341587],[-73.3486439937594,41.1501011674201],[-73.3488036604676,41.1499418340505],[-73.3488543938117,41.1498484340307],[-73.3491012605432,41.14961236731],[-73.3491956605695,41.1495464339607],[-73.3494788606543,41.1494475672652],[-73.3499944608159,41.1493869672358],[-73.350444860964,41.1494472338986],[-73.350531994327,41.1494746339009],[-73.3509243944587,41.1495733672397],[-73.3512874612448,41.1496225672365],[-73.3522317948818,41.1496388338738],[-73.3523986616002,41.149605767195],[-73.3528706617391,41.1494024338062],[-73.3533135951985,41.1491387670734],[-73.3534878619157,41.1490509670503],[-73.3537273953163,41.1488915670114],[-73.3540686620821,41.1487213669668],[-73.3543446621643,41.148616966937],[-73.3546059955723,41.1484685668995],[-73.3548456623087,41.1483477668678],[-73.3549761956699,41.1481171668191],[-73.3550050623378,41.1479853667925],[-73.354961462314,41.1478206334289],[-73.3547360622177,41.1474254333605],[-73.3545761954894,41.1472498333321],[-73.3543145953965,41.1471016333125],[-73.3542419953684,41.1470248333003],[-73.3541764619999,41.1467888332571],[-73.3542126620029,41.1466460332283],[-73.3543432620302,41.1464044331772],[-73.3544593953936,41.1462890331509],[-73.354720662131,41.1460694330995],[-73.354822395494,41.1460199664199],[-73.3550400622114,41.1457069663519],[-73.3554722623272,41.1453291662643],[-73.3555897956765,41.1449700328576],[-73.3560487957993,41.1445646327635],[-73.3561867958368,41.1444548327375],[-73.3563753958863,41.1442736326962],[-73.3566221959439,41.1439166326188],[-73.3568541959861,41.1433840325082],[-73.3569048626634,41.1432907658217],[-73.3576597961967,41.1425931656611],[-73.3578194629029,41.1424009656185],[-73.3582185963435,41.1420603655391],[-73.3583710630548,41.1419889655201],[-73.3587485964916,41.1416977654509],[-73.3588863965231,41.141489165406],[-73.3589589965418,41.1414122320551],[-73.3590240632163,41.1411981653451],[-73.3590747965554,41.141022431976],[-73.3590094631962,41.1409401652957],[-73.3587406630987,41.140753565269],[-73.3585154630235,41.1407041652672],[-73.3584427963315,41.1406713652635],[-73.3583554629644,41.1405725652474],[-73.358355596293,41.1404956318992],[-73.3584642629783,41.1402266318436],[-73.3584267962834,41.1399589651266],[-73.3584337962689,41.1396802317392],[-73.358611396316,41.1395187650354],[-73.3604465968733,41.1390036315393],[-73.3607145969511,41.1388696315042],[-73.360837996981,41.1387103648025]]},"properties":{"OBJECTID":1103,"ASSESSMENT_UNIT_ID":"CT7200-29_01","ASSESSMENT_UNIT_NAME":"Deadman Brook (Westport/Fairfield)-01","LOCATION_DESCRIPTION":"Mouth Saugatuck River just DS Route 1 crossing, US to HW just US Sturges Highway crossing, Westport/Fairfield.","USE_CLASS_NAME":"INLAND SURFACE WATERS CLASS A","WATER_TYPE_NAME":"RIVER","WATER_SIZE":4.16,"UNITS":"Miles","AQUATIC_LIFE_ATTAINMENT_2024":"Not Assessed","RECREATION_ATTAINMENT_2024":"Not Supporting","FISH_CONSUMPTION_ATTAINMENT_202":"Insufficient Information","DRINKINGWATER_ATTAINMENT_2024":"NOT EVALUATED","CYCLE":2024,"Impaired":"Yes"}},{"type":"Feature","id":1294,"geometry":{"type":"LineString","coordinates":[[-73.3185971821335,41.1170689620837],[-73.3184954487772,41.1172281621178],[-73.3183430487393,41.1174092288246],[-73.3182268487049,41.1174586288382],[-73.318205182032,41.1174696288412],[-73.318059848653,41.1174861621827],[-73.317849448589,41.1175409622005],[-73.3176170485306,41.1178100289271],[-73.3173847818021,41.1180186289753],[-73.3172832484461,41.118183362344],[-73.3172428484418,41.1183275623731],[-73.3172741817944,41.1184815624017],[-73.3171632484375,41.1186802291107],[-73.3170581817432,41.1187817624672],[-73.3169928483907,41.1188092291414],[-73.3168403816804,41.1188970291636],[-73.3167502483213,41.1189478291764],[-73.3166749816416,41.1191337625483],[-73.3164849815913,41.1193111625891],[-73.3163270482258,41.1196159626534],[-73.3160634481559,41.1198578293757],[-73.3159836481306,41.119863362713],[-73.3157005813688,41.119791962709],[-73.3155190479733,41.1197260293691],[-73.3154174479415,41.1197370293748],[-73.3153084479095,41.119786429388],[-73.3152649812316,41.1198302293978],[-73.315257647903,41.1199511627548],[-73.3154464479746,41.12013222945],[-73.3154464479795,41.1202145627991],[-73.3152069812444,41.1203518295006],[-73.3151488478974,41.1204342295186],[-73.3152431812708,41.1205989628804],[-73.3152504479444,41.1206758295616],[-73.3152214479368,41.120703229568],[-73.3148003811523,41.1209887629709],[-73.3147277811353,41.1210930296601],[-73.3146333811117,41.1212028296846],[-73.3145171810813,41.1213181630442],[-73.3144300477283,41.1214553630737],[-73.3143936477194,41.1214992297501],[-73.3143283810377,41.1215980297714],[-73.31429938103,41.1216255631112],[-73.3141831809965,41.1216859631267],[-73.3140888476325,41.1216804297956],[-73.3139944476033,41.121696829802],[-73.3139073809119,41.1217518298156],[-73.3138129808844,41.1217957631607],[-73.3136096474862,41.1218012298353],[-73.3135515808029,41.1218341631771],[-73.3133120474014,41.1219768298795],[-73.3131813806948,41.1220097632236],[-73.3131885807073,41.1221799632564],[-73.3131885807093,41.1222129632627],[-73.3132610474194,41.1225478299915],[-73.3134571808423,41.1229924300705],[-73.3135950475657,41.1232011634394],[-73.3137983809736,41.123354963462],[-73.3157343816264,41.1238867634981],[-73.315932848358,41.1239093634956],[-73.3161433817757,41.1241893635422],[-73.3158021816872,41.1245352302875],[-73.3155988483024,41.1247658303389],[-73.3154608482682,41.1249305637088],[-73.3153882482494,41.1250073637262],[-73.3152906482241,41.125105230415],[-73.3152543815502,41.12517663043],[-73.3151164481815,41.1253248304634],[-73.3149566481395,41.1254785638319],[-73.3148287814339,41.1255112305093],[-73.3148259814385,41.1256048305274],[-73.3146082480427,41.1257256305583],[-73.314481648014,41.1259216306005],[-73.3129382476142,41.1275019642918],[-73.3130327810019,41.127899631032],[-73.3128656476249,41.1280643644029],[-73.3126987809113,41.1281742310965],[-73.3126333808946,41.1282455644459],[-73.3125607808783,41.1283608311374],[-73.3125244475438,41.1285364311724],[-73.312582447578,41.1287945645536],[-73.312589780928,41.1290305645989],[-73.3126841809873,41.1295136313555],[-73.3126769810264,41.1301999648216],[-73.3128149810971,41.1306392315681],[-73.3129600478245,41.1308752316087],[-73.3131343812269,41.1310947649783],[-73.3133739813154,41.1312870316739],[-73.313570048056,41.131473631703],[-73.3136862481066,41.1316932317414],[-73.3138315814964,41.1318579651017],[-73.3139549815401,41.1319237651101],[-73.3141944482871,41.1319842317802],[-73.3143106483276,41.1320390317866],[-73.3144703817148,41.1320830317897],[-73.3148262485061,41.1322586318114],[-73.3150948486046,41.1324618318414],[-73.3152837820178,41.1327802318962],[-73.3153635820601,41.1330601652809],[-73.315363648755,41.1335268320375],[-73.3152039820805,41.1342460321818],[-73.3151167820644,41.1344437655562],[-73.315044182052,41.1346248322603],[-73.3147682486626,41.1351629657071],[-73.3142236485288,41.1358381658559],[-73.3141873818577,41.1359589658806],[-73.3142454485521,41.1361126325749],[-73.3144705819998,41.1368098327016],[-73.314499648699,41.1371941661082],[-73.3144269820789,41.138352566334]]},"properties":{"OBJECTID":1294,"ASSESSMENT_UNIT_ID":"CT7000-13_01","ASSESSMENT_UNIT_NAME":"Greens Farms Brook (Westport)-01","LOCATION_DESCRIPTION":"Mouth at SA water parallel along Burying Hill Road (near Burying Hill Beach), DS Beachside Avenue crossing, US to HW (US under I95 crossing) near Regent Park along west side of Route 1, Westport.","USE_CLASS_NAME":"INLAND SURFACE WATERS CLASS A","WATER_TYPE_NAME":"RIVER","WATER_SIZE":1.87,"UNITS":"Miles","AQUATIC_LIFE_ATTAINMENT_2024":"Not Assessed","RECREATION_ATTAINMENT_2024":"Not Supporting","FISH_CONSUMPTION_ATTAINMENT_202":"Insufficient Information","DRINKINGWATER_ATTAINMENT_2024":"NOT EVALUATED","CYCLE":2024,"Impaired":"Yes"}}]}