{"type":"FeatureCollection","crs":{"type":"name","properties":{"name":"EPSG:4326"}},"features":[{"type":"Feature","id":1015,"geometry":{"type":"LineString","coordinates":[[-73.3641524111904,41.1715943729038],[-73.3644434504558,41.171890536577],[-73.3648213396167,41.1721153189341],[-73.3651199899056,41.1722304949647],[-73.3658683114278,41.172362104986],[-73.3661077772792,41.172361941573],[-73.366347442432,41.1724222773912],[-73.3665437298328,41.172542786405],[-73.3665437752178,41.1725869670843],[-73.3664787167714,41.1727570053415],[-73.3665370645743,41.1728228212506],[-73.3669729720708,41.1729983186935],[-73.3671183035268,41.1730861773201],[-73.3671549905594,41.1731850341153],[-73.3671768298574,41.1735254168756],[-73.3673007665071,41.1738711582627],[-73.3674386846597,41.1740412268096],[-73.3678822528954,41.1742774639199],[-73.3683038614651,41.1744361491299],[-73.3685220383938,41.1745072904386],[-73.3687907204711,41.1745238470009],[-73.3690448502265,41.1744194764802],[-73.3693352472678,41.1743695028011],[-73.3695463700994,41.1743644197469],[-73.3697644401106,41.1744243035565],[-73.3702731483587,41.1746162784237],[-73.3705419368159,41.1746438041715],[-73.3704766125421,41.1751377442165],[-73.3704699118837,41.1754124326111],[-73.370455804539,41.1757307793274],[-73.3703579492098,41.1758976210078],[-73.3703804320881,41.1762256175144],[-73.3708104635887,41.1766805684984],[-73.3704246602529,41.1768821790848],[-73.3701176430481,41.1769871203375],[-73.3701120080513,41.1772173401236],[-73.3705008433247,41.1772954321407],[-73.3707912023959,41.1772401081293],[-73.3711178553463,41.1771631986158],[-73.3712998663454,41.1772291850747],[-73.371539488283,41.1773607058929],[-73.371619606192,41.1774432853958],[-73.3718812027639,41.1775746869633],[-73.3720994438343,41.1776511680763],[-73.3722524539668,41.1777612089628],[-73.3723466645088,41.1778763546578],[-73.3726738593551,41.1780904114909],[-73.3728122014867,41.178068271446],[-73.3734658941849,41.1781885280293],[-73.3736477055044,41.1781940092429],[-73.373923600799,41.1781061127835],[-73.3741126504971,41.1780896033216],[-73.3743812524364,41.1780180681413],[-73.3745484933245,41.1779411752922],[-73.3748027848765,41.1778533946721],[-73.3750042209121,41.1777301640926],[-73.3751201167454,41.1776588978983],[-73.3756729161708,41.1774726796448],[-73.3758106282852,41.1773461376698],[-73.3758839175112,41.1771431246779],[-73.3759565522824,41.1770661846645],[-73.376043978736,41.1770170228879],[-73.3761818943516,41.176989534165],[-73.376326983726,41.1770498050963],[-73.3763996543741,41.1771706924123],[-73.376493861822,41.177401210366],[-73.3765736455352,41.1777198882148],[-73.3766386496715,41.1778956921603],[-73.3769945280597,41.1782637900909],[-73.3773134160704,41.1787744809666],[-73.3774368507412,41.1789063466977],[-73.3776039720868,41.1789721221188],[-73.3777497130578,41.1789834226158],[-73.3780618377292,41.1789448451692],[-73.3781345251713,41.1789120844378],[-73.3785706944692,41.1786431967731],[-73.3788470762599,41.1784128945786],[-73.3789852098384,41.1783305274019],[-73.3792905784844,41.178248364666],[-73.3795088956039,41.1782156471848],[-73.379872094829,41.1782212446305],[-73.3803515585342,41.1781941204699],[-73.3805423323046,41.1782406265143],[-73.380890289581,41.1784033301866],[-73.3817032562372,41.1789692521227],[-73.3822457156058,41.1792161433823],[-73.3825314529455,41.1795297380887],[-73.3826881562442,41.1800570699713],[-73.3828732851564,41.1804041446849],[-73.3830573183198,41.180599548455],[-73.3835030918414,41.1810141227311],[-73.3840384713488,41.1815649628206],[-73.3844298694421,41.1819789921192],[-73.3846270646543,41.182454599582],[-73.384841620765,41.1826850057339],[-73.3851304046236,41.1828877037476],[-73.3855605080878,41.1832967292535],[-73.3862445473828,41.184076923318],[-73.3864914323564,41.1844129557703],[-73.3865780093137,41.1848112263924],[-73.3865926943425,41.1854766694085],[-73.3866740509784,41.1859506668745],[-73.3867856474764,41.1864312493601],[-73.3870328018745,41.1867554606469],[-73.3871159277885,41.1869902521467],[-73.3870706031739,41.1872699409324],[-73.386755872264,41.1878086156071],[-73.3865825984024,41.1882612369835],[-73.3865829365421,41.1888687900327],[-73.3866415058115,41.1889920014417],[-73.3867727549437,41.1891572999389],[-73.3868679437449,41.1893683874285],[-73.3869646062663,41.1895395070288],[-73.3873221493426,41.1897603886524],[-73.3874344852077,41.1898197016664],[-73.3873734726078,41.1898661927971],[-73.3870695155388,41.1902883060582],[-73.3868090121125,41.1905064390739],[-73.3866094908456,41.190789517983],[-73.3866927080107,41.1909950434696],[-73.3869016489781,41.1912955479666],[-73.3869095727113,41.1916112411364],[-73.3866945437265,41.1918707685918],[-73.3860502510424,41.1923110944564],[-73.3859332632782,41.192654215791],[-73.3859451627468,41.1929577865258],[-73.3860388048892,41.1932392341859],[-73.386356234652,41.193547296345],[-73.3865764659121,41.1940115164743],[-73.386885964487,41.1943078019141],[-73.3872038038911,41.1945806840069],[-73.3876538985282,41.1948148387154],[-73.3878383636684,41.1948582722282],[-73.3885474835362,41.1949499943153],[-73.3887926509184,41.1950291075419],[-73.3889553905454,41.1951745302119],[-73.3890494557421,41.1952691191902],[-73.3890855949694,41.1953834500732],[-73.389174414992,41.1954369830854],[-73.3890751318719,41.1954943818351],[-73.3889871370839,41.1956012452988],[-73.3887637644024,41.1958841792074],[-73.3887221946259,41.1961666614398],[-73.3887427095584,41.1964355702047],[-73.3890180645445,41.1965530674952],[-73.3890934944543,41.1969511164702],[-73.3891948098273,41.1971770820589],[-73.3892526170197,41.1972212209339],[-73.3895070971529,41.19737513474],[-73.3897392258974,41.1975671623677],[-73.3897904930206,41.19766621231],[-73.3898702096746,41.1980068308522],[-73.3899129755907,41.1987587885675],[-73.3899419685594,41.1990937810513],[-73.3899924926751,41.1992308244433],[-73.3899851516213,41.199280111511],[-73.3900509154849,41.1995273801254],[-73.3901885767571,41.1996977048439],[-73.3901595949438,41.1999336850302],[-73.3902683037495,41.200114864582],[-73.3904478162155,41.2002593466667],[-73.3906947644153,41.2002897627273],[-73.3908667178042,41.2004990095501],[-73.3908349113673,41.2007127743422],[-73.3908066360807,41.2007928527892],[-73.3905481248668,41.2012169713899],[-73.3904693578232,41.201543280563],[-73.3903908975974,41.2015971861992],[-73.3904585950909,41.2016235409188],[-73.3904480729402,41.2016902930707],[-73.3902950383953,41.202156313113],[-73.3903246547028,41.2022506989458],[-73.3902115178509,41.2023022673373],[-73.3900850560995,41.2024006222691],[-73.3897949765173,41.2026842138712],[-73.3895726463795,41.2030757662787],[-73.3894174815473,41.2032871243528],[-73.3891749930032,41.2034469110734],[-73.3891024479748,41.2035345516842],[-73.3890077298665,41.2038311203087],[-73.3888550819204,41.2039954686935],[-73.388804268491,41.204171631422],[-73.3887167118258,41.2042863701917],[-73.3884983447486,41.2046652351525],[-73.3884763817873,41.2048958295987],[-73.388358575374,41.2052704744947],[-73.3884015904484,41.2054016516334],[-73.3885246127159,41.2055599578678],[-73.3887367355114,41.2058373661438],[-73.3887994930762,41.2060818382239],[-73.3888006910321,41.2065087244952],[-73.388695269117,41.2068163254859],[-73.3883069376539,41.2073815858018],[-73.3882415952854,41.2075583911487],[-73.3882340462147,41.2076628348801],[-73.3885319603621,41.2079484876693],[-73.38860458447,41.2081349351782],[-73.3886697706966,41.2084370823834],[-73.3886988314387,41.2089696202782],[-73.3886621708275,41.2091454229103],[-73.3883419439961,41.2094744834083],[-73.3881966335108,41.2097049211395],[-73.3879705845075,41.2101387023707],[-73.3878008681318,41.2108842474517],[-73.387954940785,41.2115497558447],[-73.3880711685233,41.2117362423886],[-73.3881294682346,41.2118296250515],[-73.3886525039782,41.212345900147],[-73.3888413555994,41.2125657494677],[-73.3888774571936,41.2126752955069],[-73.3888264152216,41.2127906758773],[-73.3887246393592,41.2129387000152],[-73.3887319937957,41.2130047893616],[-73.3888045194244,41.2131805443395],[-73.3889423164124,41.2134001148119],[-73.3889711385789,41.2136034110294],[-73.3888327554836,41.2139711357267],[-73.3888253140596,41.2140865536044],[-73.3889416097029,41.2143554900457],[-73.3890652569244,41.2146519635795],[-73.3890937183264,41.2149706371954],[-73.3890210568519,41.2150855746792],[-73.3887155951997,41.2152887660734],[-73.3881698167429,41.215574060775],[-73.3879150809986,41.2157440437323],[-73.387660456644,41.2160018226369],[-73.3874275745884,41.2165397602195],[-73.3870780321698,41.2170006788972],[-73.3870343862613,41.2171872117477],[-73.3870193432536,41.2175168208456],[-73.3869319853036,41.2176540701009],[-73.3868957273727,41.2176812864687],[-73.3858632404352,41.2179712478656],[-73.3852689693062,41.21833221376],[-73.3852010542155,41.2183998466687],[-73.3852011583118,41.2184105389995],[-73.3853098868861,41.2185920057354],[-73.385324425718,41.2187073003799],[-73.3853099525275,41.2189049271473],[-73.3852589508695,41.2189873804316],[-73.3851930975798,41.2191520871854],[-73.3851425729194,41.2192452306745],[-73.3848724424229,41.2197887163658],[-73.3848219706806,41.2199257593087],[-73.3847053767749,41.220123389617],[-73.3845821461539,41.2202135593478],[-73.3842426837446,41.2204886852192],[-73.3841416208189,41.2219010554507],[-73.3838378857122,41.2226704111315],[-73.3838669577587,41.2227856254241],[-73.3841064058313,41.2231096036752],[-73.3841863836555,41.2231702248799],[-73.3842370742835,41.223247049942],[-73.3842515646841,41.2235874695071],[-73.3843314443289,41.2240212343105],[-73.3842944938395,41.2241309056153],[-73.3841781003336,41.2243119315702],[-73.3840617088653,41.2244164151171],[-73.3837413821498,41.224591815934],[-73.3835449585661,41.2247454251733],[-73.3834650378597,41.2248443593067],[-73.3834428329259,41.2249373461163],[-73.3832973665438,41.2250802600152],[-73.3829558440728,41.2252614046196],[-73.3828830028347,41.2253217462098],[-73.3828027053567,41.2254972242078],[-73.382846101637,41.2258211632841],[-73.3830346533624,41.2263153931794],[-73.3830782086431,41.2263866285635],[-73.3832307643629,41.2264361560601],[-73.3834564825726,41.2264199927778],[-73.3837400254184,41.2264856789816],[-73.3840168862762,41.2266693097521],[-73.3844365417653,41.2267415572534],[-73.3847140616791,41.2268776251762],[-73.3847519286928,41.2274748381199],[-73.3852731402845,41.2279852290005],[-73.3853457253212,41.2281663325725],[-73.3853453072394,41.2282763641629],[-73.3852725232326,41.2284577109447],[-73.385207293634,41.2285343333855],[-73.3848431278252,41.2287263029625],[-73.3847194849805,41.2288524949639],[-73.3846759831861,41.22890198206],[-73.3847852009277,41.2290555864504],[-73.3856276510828,41.2298630455865],[-73.3857584977195,41.2300553628516],[-73.3857947135217,41.2301761656848],[-73.385860002615,41.2302968069981],[-73.3870580847353,41.231675782685],[-73.3898921230032,41.2319340628108],[-73.3906485191091,41.2315983364707],[-73.3911298975814,41.2316507967261],[-73.3917186821923,41.2319733647387],[-73.3925340746657,41.2320650301775],[-73.3926514044142,41.2321693357319],[-73.3927963904794,41.2325456042709],[-73.3928321853405,41.2326222273719],[-73.3931739600119,41.2329191594625],[-73.3934502055935,41.2330726607603],[-73.3935608114253,41.2330996162832]]},"properties":{"OBJECTID":1015,"ASSESSMENT_UNIT_ID":"CT7203-00_01","ASSESSMENT_UNIT_NAME":"West Branch Saugatuck River (Westport/Weston)-01","LOCATION_DESCRIPTION":"Mouth Saugatuck River (DS Pan Handle Lane crossing), Westport, US to Godfrey Road West crossing (just east Old Orchard Drive intersection), Weston.","USE_CLASS_NAME":"INLAND SURFACE WATERS CLASS A","WATER_TYPE_NAME":"RIVER","WATER_SIZE":6.12,"UNITS":"Miles","AQUATIC_LIFE_ATTAINMENT_2024":"Fully Supporting","RECREATION_ATTAINMENT_2024":"Fully Supporting","FISH_CONSUMPTION_ATTAINMENT_202":"Insufficient Information","DRINKINGWATER_ATTAINMENT_2024":"NOT EVALUATED","CYCLE":2024,"Impaired":"No"}}]}